Organization Type,Organization Name,Organization Number,NCES ID,Mailing Street Address,Mailing City,Mailing State,Mailing Zip,Site Street Address,Site City,Site State,Site Zip,Phone,Fax,Email Address,Web Page Address,Administrator,County Name,County Number,Region Number,District Name,District Number,Organization Sub Type,Charter Type,Grade Range,Enrollment as of Oct 2019,Magnet Status,Residential Facility,Alternative Education Accountability 2019,High School Code (CEEB Code), Organization Status
district,DALLAS ISD,'057905,'4816230,9400 N CENTRAL EXPY,DALLAS,TX,75231,9400 N CENTRAL EXPY,DALLAS,TX,75231,(972) 925-3700,(972) 925-3201,arodriguez@dallasisd.org,www.dallasisd.org,MICHAEL HINOJOSA,DALLAS COUNTY,'057,'10,INDEPENDENT,153861,Active ,,,,,,,,
school,BRYAN ADAMS H S,'057905001,'481623001205,2101 MILLMAR DR,DALLAS,TX,75228-3399,2101 MILLMAR DR,DALLAS,TX,75228-3399,(972) 502-4900,(972) 502-4901,RBOTT@dallasisd.org,www.dallasisd.org/Page/23035,RYAN D BOTT,DALLAS COUNTY,'057,'10,DALLAS ISD,'057905,REGULAR INSTRUCTIONAL,,'09-12,2166,No,No,Not registered,441723,Active 
school,W H ADAMSON H S,'057905002,'481623001206,309 E NINTH ST,DALLAS,TX,75203-2298,309 E NINTH ST,DALLAS,TX,75203-2298,(972) 749-1400,(972) 749-1401,dvega@dallasisd.org,www.dallasisd.org/adamson,DIANA V NUNEZ,DALLAS COUNTY,'057,'10,DALLAS ISD,'057905,REGULAR INSTRUCTIONAL,,'09-12,1619,No,No,Not registered,441830,Active 
school,NEW TECH H S AT B F DARRELL H S,'057905003,'481623001204,4730 LANCASTER RD,DALLAS,TX,75216,4730 LANCASTER RD,DALLAS,TX,75216,(214) 932-7600,(214) 932-7601,jachoice@dallasisd.org,www.dallasisd.org/newtech,JAMEILE RE'SHAD CHOICE,DALLAS COUNTY,'057,'10,DALLAS ISD,'057905,REGULAR INSTRUCTIONAL,,'09-12,269,No,No,Not registered,441742,Active 
school,MOISES E MOLINA H S,'057905005,'481623007565,2355 DUNCANVILLE RD,DALLAS,TX,75211-6532,2355 DUNCANVILLE RD,DALLAS,TX,75211-6532,(972) 502-1000,(972) 502-1001,TERRODRIGUEZ@dallasisd.org,www.dallasisd.org/molina,TERRY-ANN LOUISE RODRIGUEZ,DALLAS COUNTY,'057,'10,DALLAS ISD,'057905,REGULAR INSTRUCTIONAL,,'09-12,2260,No,No,Not registered,441791,Active 
school,HILLCREST H S,'057905006,'481623001277,9924 HILLCREST RD,DALLAS,TX,75230-5309,9924 HILLCREST RD,DALLAS,TX,75230-5309,(972) 502-6800,(972) 502-6801,CBAYER@dallasisd.org,www.dallasisd.org/hillcrest,JOSEPH SOTELO,DALLAS COUNTY,'057,'10,DALLAS ISD,'057905,REGULAR INSTRUCTIONAL,,'09-12,1371,No,No,Not registered,441745,Active 
school,THOMAS JEFFERSON H S,'057905007,'481623001289,4001 WALNUT HILL LN,DALLAS,TX,75229-6239,4001 WALNUT HILL LN,DALLAS,TX,75229-6239,(972) 502-7300,(972) 502-7301,SAMASSEY@dallasisd.org,Www.dallasisd.org/tjefferson,SANDI MASSEY,DALLAS COUNTY,'057,'10,DALLAS ISD,'057905,REGULAR INSTRUCTIONAL,,'09-12,1867,No,No,Not registered,441822,Active 
school,JUSTIN F KIMBALL H S,'057905008,'481623001295,3606 S WESTMORELAND RD,DALLAS,TX,75233-3016,3606 S WESTMORELAND RD,DALLAS,TX,75233-3016,(972) 502-2100,(972) 502-2101,llsmith@dallasisd.org,www.dallasisd.org/kimball,LLEWELLYN SMITH,DALLAS COUNTY,'057,'10,DALLAS ISD,'057905,REGULAR INSTRUCTIONAL,,'09-12,1413,Yes,No,Not registered,441757,Active 
school,LINCOLN HUMANITIES/COMMUNICATIONS MAGNET HIGH SCH,'057905009,'481623001304,2826 ELSIE FAYE HEGGINS ST,DALLAS,TX,75215-4797,2826 ELSIE FAYE HEGGINS ST,DALLAS,TX,75215-4797,(972) 925-7600,(972) 925-7601,JoMorgan@dallasisd.org,www.dallasisd.org/lincolnhumanities,JOHNNA ANN WEAVER,DALLAS COUNTY,'057,'10,DALLAS ISD,'057905,REGULAR INSTRUCTIONAL,,'09-12,679,Yes,No,Not registered,441760,Active 
school,BARBARA M MANNS MIDDLE DAEP,'057905011,'481623007244,3313 S BECKLEY AVE BLDG E,DALLAS,TX,75224,3313 S BECKLEY AVE BLDG E,DALLAS,TX,75224,(972) 925-7060,(972) 376-5317,gdupree@dallasisd.org,,MARLON L BROOKS,DALLAS COUNTY,'057,'10,DALLAS ISD,'057905,DAEP INSTRUCTIONAL,,'06-08,93,No,No,Not registered,,Active 
school,L G PINKSTON H S,'057905012,'481623001331,2200 DENNISON ST,DALLAS,TX,75212-2499,2200 DENNISON ST,DALLAS,TX,75212-2499,(972) 502-2700,(972) 502-2701,DWSIMMONS@dallasisd.org,www.dallasisd.org/pinkston,DWAIN J SIMMONS JR,DALLAS COUNTY,'057,'10,DALLAS ISD,'057905,REGULAR INSTRUCTIONAL,,'07-12,1347,No,No,Not registered,441759,Active 
school,FRANKLIN D ROOSEVELT H S,'057905013,'481623001343,525 BONNIE VIEW RD,DALLAS,TX,75203-3599,525 BONNIE VIEW RD,DALLAS,TX,75203-3599,(972) 925-6800,(972) 925-6801,lamorris@DALLASISD.ORG,www.dallasisd.org/roosevelt,LAKISHA J LOGAN,DALLAS COUNTY,'057,'10,DALLAS ISD,'057905,REGULAR INSTRUCTIONAL,,'09-12,704,Yes,No,Not registered,441730,Active 
school,W W SAMUELL H S,'057905014,'481623001379,8928 PALISADE DR,DALLAS,TX,75217-2099,8928 PALISADE DR,DALLAS,TX,75217-2099,(972) 892-5100,(972) 892-5101,JTeck055@dallasisd.org,www.dallasisd.org/Page/1542,JENNIFER L TECKLENBURG,DALLAS COUNTY,'057,'10,DALLAS ISD,'057905,REGULAR INSTRUCTIONAL,,'09-12,1933,No,No,Not registered,441833,Active 
school,SEAGOVILLE H S,'057905015,'481623001352,15920 SEAGOVILLE RD,DALLAS,TX,75253-5705,151920 SEAGOVILLE RD,DALLAS,TX,75253-5705,(972) 892-5900,(972) 892-5901,AnWest@dallasisd.org,www.dallasisd.org/seagovillehs,ANGELA S WEST,DALLAS COUNTY,'057,'10,DALLAS ISD,'057905,REGULAR INSTRUCTIONAL,,'09-12,1626,Yes,No,Not registered,446395,Active 
school,SOUTH OAK CLIFF H S,'057905016,'481623001358,3601 S MARSALIS AVE,DALLAS,TX,75216-5905,3601 S MARSALIS AVE,DALLAS,TX,75216-5905,(214) 932-7000,(214) 932-7001,ElvWilliams@dallasisd.org,www.dallasisd.org/soc,WILLIE F JOHNSON,DALLAS COUNTY,'057,'10,DALLAS ISD,'057905,REGULAR INSTRUCTIONAL,,'09-12,1243,No,No,Not registered,441815,Active 
school,H GRADY SPRUCE H S,'057905017,'481623001360,9733 OLD SEAGOVILLE RD,DALLAS,TX,75217-7798,9733 OLD SEAGOVILLE RD,DALLAS,TX,75217-7798,(972) 892-5500,(972) 892-5501,DPetters@dallasisd.org,www.dallasisd.org/spruce,DANIELLE M PETTERS,DALLAS COUNTY,'057,'10,DALLAS ISD,'057905,REGULAR INSTRUCTIONAL,,'09-12,1814,No,No,Not registered,441738,Active 
school,SUNSET H S,'057905018,'481623001367,2120 W JEFFERSON BLVD,DALLAS,TX,75208-5599,2120 W JEFFERSON BLVD,DALLAS,TX,75208-5599,(972) 502-1500,(972) 502-1501,CGalindo@dallasisd.org,www.dallasisd.org/sunset,CLAUDIA I VEGA,DALLAS COUNTY,'057,'10,DALLAS ISD,'057905,REGULAR INSTRUCTIONAL,,'09-12,2026,No,No,Not registered,441820,Active 
school,W T WHITE H S,'057905021,'481623001383,4505 RIDGESIDE DR,DALLAS,TX,75244-7524,4505 RIDGESIDE DR,DALLAS,TX,75244-7524,(972) 502-6200,(972) 502-6201,ELBATES@dallasisd.org,www.dallasisd.org/wtwhite,ELENA L BATES,DALLAS COUNTY,'057,'10,DALLAS ISD,'057905,REGULAR INSTRUCTIONAL,,'09-12,2096,No,No,Not registered,441828,Active 
school,WOODROW WILSON H S,'057905022,'481623001387,100 S GLASGOW DR,DALLAS,TX,75214-4518,100 S GLASGOW DR,DALLAS,TX,75214-4518,(972) 502-4400,(972) 502-4401,RORODRIQUEZ@dallasisd.org,www.dallasisd.org/woodrow,MICHAEL J MORAN,DALLAS COUNTY,'057,'10,DALLAS ISD,'057905,REGULAR INSTRUCTIONAL,,'09-12,1915,No,No,Not registered,441835,Active 
school,DAVID W CARTER H S,'057905023,'481623001229,1819 W WHEATLAND RD,DALLAS,TX,75232,1819 W WHEATLAND RD,DALLAS,TX,75232,(214) 932-5700,(214) 932-5701,JONSMITH@dallasisd.org,www.dallasisd.org/carter,JONATHAN SMITH,DALLAS COUNTY,'057,'10,DALLAS ISD,'057905,REGULAR INSTRUCTIONAL,,'09-12,1114,No,No,Not registered,441729,Active 
school,NORTH DALLAS H S,'057905024,'481623001324,3120 N HASKELL AVE,DALLAS,TX,75204-1510,3120 N HASKELL AVE,DALLAS,TX,75204-1510,(972) 925-1500,(972) 925-1501,KWANSERSKI@dallasisd.org,www.dallasisd.org/northdallas,R CHASE MCLAURIN,DALLAS COUNTY,'057,'10,DALLAS ISD,'057905,REGULAR INSTRUCTIONAL,,'09-12,1131,No,No,Not registered,441775,Active 
school,SKYLINE H S,'057905025,'481623001357,7777 FORNEY RD,DALLAS,TX,75227-2599,7777 FORNEY RD,DALLAS,TX,75227-2599,(972) 502-3400,(972) 502-3401,JLombard@dallasisd.org,www.dallasisd.org/skyline,JANICE DARLENE LOMBARDI,DALLAS COUNTY,'057,'10,DALLAS ISD,'057905,REGULAR INSTRUCTIONAL,,'09-12,4146,Yes,No,Not registered,441812,Active 
school,SCHOOL OF SCIENCE AND ENGINEERING,'057905026,'481623003641,1201 E EIGHTH ST,DALLAS,TX,75203-2545,1201 E EIGHTH ST,DALLAS,TX,75203-2545,(972) 925-5960,(972) 925-5901,THUITT@dallasisd.org,www.dallasisd.org/semagnet,ANDREW PALACIOS,DALLAS COUNTY,'057,'10,DALLAS ISD,'057905,REGULAR INSTRUCTIONAL,,'09-12,492,Yes,No,Not registered,441811,Active 
school,EMMETT J CONRAD H S,'057905028,'481623010560,7502 FAIR OAKS AVE,DALLAS,TX,75231,7502 FAIR OAKS AVE,DALLAS,TX,75231,(972) 502-2300,(972) 502-2301,TASMEROM@dallasisd.org,www.dallasisd.org/conrad,TEMESGHEN ASMEROM,DALLAS COUNTY,'057,'10,DALLAS ISD,'057905,REGULAR INSTRUCTIONAL,,'09-12,1349,No,No,Not registered,441854,Active 
school,BARBARA M MANNS H S DAEP,'057905029,'481623006930,3313 S BECKLEY AVE BOX 187,DALLAS,TX,75224,3313 S BECKLEY AVE BOX 187,DALLAS,TX,75224,(972) 925-7000,(972) 376-5317,MarBrooks@dallasisd.org,www.dallasisd.org/scgc,MARLON L BROOKS,DALLAS COUNTY,'057,'10,DALLAS ISD,'057905,DAEP INSTRUCTIONAL,,'09-12,122,No,No,Not registered,,Active 
school,MAYA ANGELOU H S,'057905030,'481623006965,3313 S BECKLEY AVE BOX 189,DALLAS,TX,75204,3313 S BECKLEY AVE BOX 189,DALLAS,TX,75204,(972) 925-2200,(972) 925-2201,lynnsmith@dallasisd.org,www.dallasisd.org/domain/641,MARLON L BROOKS,DALLAS COUNTY,'057,'10,DALLAS ISD,'057905,ALTERNATIVE INSTRUCTIONAL,,'05-12,13,No,No,Registered,441892,Active 
school,JAMES MADISON H S,'057905032,'481623001311,3000 MARTIN LUTHER KING JR BLV,DALLAS,TX,75215-2499,3000 MARTIN LUTHER KING JR BLV,DALLAS,TX,75215-2499,(972) 925-2800,(972) 925-2801,mwillard@DALLASISD.ORG,www.dallasisd.org/madison,MARIAN WILLIARD,DALLAS COUNTY,'057,'10,DALLAS ISD,'057905,REGULAR INSTRUCTIONAL,,'09-12,490,No,No,Not registered,441752,Active 
school,SCHOOL OF BUSINESS AND MANAGEMENT,'057905033,'481623001225,1201 E EIGHTH ST,DALLAS,TX,75203-2545,1201 E EIGHTH ST,DALLAS,TX,75203-2545,(972) 925-5920,(972) 925-6001,MIBROUGHTON@dallasisd.org,www.dallasisd.org/businessmagnet,MICHELE G BROUGHTON,DALLAS COUNTY,'057,'10,DALLAS ISD,'057905,REGULAR INSTRUCTIONAL,,'09-12,493,Yes,No,Not registered,441721,Active 
school,BOOKER T WASHINGTON SPVA MAGNET,'057905034,'481623001242,2501 FLORA ST,DALLAS,TX,75201,3434 S R L THORNTON,DALLAS,TX,75224,(972) 925-1200,(972) 925-1201,SRUDES@dallasisd.org,www.dallasisd.org/bookert,SCOTT M RUDES,DALLAS COUNTY,'057,'10,DALLAS ISD,'057905,REGULAR INSTRUCTIONAL,,'09-12,992,Yes,No,Not registered,441732,Active 
school,IRMA RANGEL YOUNG WOMEN'S LEADERSHIP SCHOOL,'057905035,'481623010561,1718 ROBERT B CULLUM BLVD,DALLAS,TX,75210,1718 ROBERT B CULLUM BLVD,DALLAS,TX,75210,(972) 749-5200,(972) 749-5201,LiCurry@dallasisd.org,,BEVERLY LUSK,DALLAS COUNTY,'057,'10,DALLAS ISD,'057905,REGULAR INSTRUCTIONAL,,'06-12,554,Yes,No,Not registered,441853,Active 
school,SCHOOL OF HEALTH PROFESSIONS,'057905036,'481623001273,1201 E EIGHTH ST,DALLAS,TX,75203-2545,1201 E EIGHTH ST,DALLAS,TX,75203-2545,(972) 925-5930,(972) 925-5901,LasSanders@dallasisd.org,www.dallasisd.org/healthmagnet,LASANDRA N SANDERS,DALLAS COUNTY,'057,'10,DALLAS ISD,'057905,REGULAR INSTRUCTIONAL,,'09-12,500,Yes,No,Not registered,441739,Active 
school,ROSIE SORRELLS EDUCATION AND SOCIAL SERVICES H S,'057905037,'481623005441,1201 E EIGHTH ST,DALLAS,TX,75203-2545,1201 E EIGHTH ST,DALLAS,TX,75203-2545,(972) 925-5940,(972) 925-6004,shelbrown@dallasisd.org,www.dallasisd.org/essm,SHEILA SAMONE BROWN,DALLAS COUNTY,'057,'10,DALLAS ISD,'057905,REGULAR INSTRUCTIONAL,,'09-12,268,Yes,No,Not registered,441751,Active 
school,JUDGE BAREFOOT SANDERS LAW MAGNET,'057905038,'481623005444,1201 E EIGHTH ST,DALLAS,TX,75203-2545,1201 E EIGHTH ST,DALLAS,TX,75203-2545,(972) 925-5920,(972) 925-5901,GFEIMSTER@dallasisd.org,www.dallasisd.org/lawmagnet,GARET PAUL FEIMSTER,DALLAS COUNTY,'057,'10,DALLAS ISD,'057905,REGULAR INSTRUCTIONAL,,'09-12,439,Yes,No,Not registered,441769,Active 
school,SCHOOL FOR THE TALENTED AND GIFTED,'057905039,'481623005865,1201 E EIGHTH ST,DALLAS,TX,75203-2545,1201 E EIGHTH ST,DALLAS,TX,75203-2545,(972) 925-5970,(972) 925-5901,bmackey@dallasisd.org,www.dallasisd.org/tagmagnet,FRANK SATARINO,DALLAS COUNTY,'057,'10,DALLAS ISD,'057905,REGULAR INSTRUCTIONAL,,'09-12,409,Yes,No,Not registered,441814,Active 
school,WILLIAM HAWLEY ATWELL LAW ACADEMY,'057905042,'481623001211,1303 REYNOLDSTON LN,DALLAS,TX,75232-2409,1303 REYNOLDSTON LN,DALLAS,TX,75232-2409,(972) 794-6400,(972) 794-6401,sdeboskie@dallasisd.org,www.dallasisd.org/atwellacademy,SHONDULA WHITFIELD,DALLAS COUNTY,'057,'10,DALLAS ISD,'057905,REGULAR INSTRUCTIONAL,,'06-08,796,Yes,No,Not registered,449007,Active 
school,T W BROWNE MIDDLE,'057905043,'481623001217,3333 SPRAGUE DR,DALLAS,TX,75233-3123,3333 SPRAGUE DR,DALLAS,TX,75233-3123,(972) 502-2500,(972) 502-2501,LAKTHOMAS@dallasisd.org,www.dallasisd.org/browne,LAKISHA L THOMAS,DALLAS COUNTY,'057,'10,DALLAS ISD,'057905,REGULAR INSTRUCTIONAL,,'06-08,533,No,No,Not registered,449008,Active 
school,EDWARD H CARY MIDDLE,'057905044,'481623001231,3978 KILLION DR,DALLAS,TX,75229-6124,3978 KILLION DR,DALLAS,TX,75229-6124,(972) 502-7600,(972) 502-7601,BDICKERSON@dallasisd.org,www.dallasisd.org/cary,NAOMI E SALAS,DALLAS COUNTY,'057,'10,DALLAS ISD,'057905,REGULAR INSTRUCTIONAL,,'06-08,0,No,No,Not registered,449009,Active 
school,E B COMSTOCK MIDDLE,'057905045,'481623001239,7044 HODDE ST,DALLAS,TX,75217-4830,7044 HODDE ST,DALLAS,TX,75217-4830,(972) 794-1300,(972) 794-1301,wjohnson009@dallasisd.org,www.dallasisd.org/comstock,LESLIE A SWANN,DALLAS COUNTY,'057,'10,DALLAS ISD,'057905,REGULAR INSTRUCTIONAL,,'06-08,755,No,No,Not registered,449010,Active 
school,YOUNG MEN'S LEADERSHIP ACADEMY AT FRED F FLORENCE,'057905046,'481623001257,1625 N MASTERS DR,DALLAS,TX,75217-3228,1625 N MASTERS DR,DALLAS,TX,75217-3228,(972) 749-6000,(972) 749-6001,CBARKSDALE@dallasisd.org,www.dallasisd.org/florence,CHRISTOPHER BARKSDALE,DALLAS COUNTY,'057,'10,DALLAS ISD,'057905,REGULAR INSTRUCTIONAL,,'06-08,790,No,No,Not registered,449012,Active 
school,BENJAMIN FRANKLIN INTERNATIONAL EXPLORATORY ACAD,'057905047,'481623006088,6920 MEADOW RD,DALLAS,TX,75230-5333,6920 MEADOW RD,DALLAS,TX,75230-5333,(972) 502-7100,(972) 502-7101,JSOTELO@dallasisd.org,www.dallasisd.org/franklin,ROGER R CEBALLOS,DALLAS COUNTY,'057,'10,DALLAS ISD,'057905,REGULAR INSTRUCTIONAL,,'06-08,1338,No,No,Not registered,449013,Active 
school,W H GASTON MIDDLE,'057905048,'481623001261,9565 MERCER DR,DALLAS,TX,75228-3753,9565 MERCER DR,DALLAS,TX,75228-3753,(972) 502-5400,(972) 502-5401,sstauss@dallasisd.org,www.dallasisd.org/gaston,JANEEN M WHITMORE,DALLAS COUNTY,'057,'10,DALLAS ISD,'057905,REGULAR INSTRUCTIONAL,,'06-08,863,No,No,Not registered,449014,Active 
school,W E GREINER EXPLORATORY ARTS ACADEMY,'057905049,'481623001266,501 S EDGEFIELD AVE,DALLAS,TX,75208-5999,501 S EDGEFIELD AVE,DALLAS,TX,75208-5999,(972) 925-7100,(972) 925-7101,YRojas@dallasisd.org,www.dallasisd.org/greineracademy,YVONNE D ROJAS,DALLAS COUNTY,'057,'10,DALLAS ISD,'057905,REGULAR INSTRUCTIONAL,,'06-08,1796,Yes,No,Not registered,449015,Active 
school,ROBERT T HILL MIDDLE,'057905050,'481623001276,505 EASTON RD,DALLAS,TX,75218-1105,505 EASTON RD,DALLAS,TX,75218-1105,(972) 502-5700,(972) 502-5701,canruiz@dallasisd.org,www.dallasisd.org/hill,CANDICE A RUIZ,DALLAS COUNTY,'057,'10,DALLAS ISD,'057905,REGULAR INSTRUCTIONAL,,'06-08,858,No,No,Not registered,449016,Active 
school,OLIVER WENDELL HOLMES HUMANITIES/COMMUNICATIONS,'057905051,'481623001279,2001 E KIEST BLVD,DALLAS,TX,75216-3399,2001 E KIEST BLVD,DALLAS,TX,75216-3399,(972) 925-8500,(972) 925-8501,SharronJackson@dallasisd.org,www.dallasisd.org/owholmes,SHARRON E JACKSON,DALLAS COUNTY,'057,'10,DALLAS ISD,'057905,REGULAR INSTRUCTIONAL,,'06-08,714,Yes,No,Not registered,449017,Active 
school,PIEDMONT GLOBAL ACADEMY,'057905052,'481623001280,7625 HUME DR,DALLAS,TX,75227-8828,7625 HUME DR,DALLAS,TX,75227-8828,(972) 749-4100,(972) 749-4101,LPORTLEY@dallasisd.org,www.dallasisd.org/hood,LETRICE L PORTLEY,DALLAS COUNTY,'057,'10,DALLAS ISD,'057905,REGULAR INSTRUCTIONAL,,'06-08,983,No,No,Not registered,449018,Active 
school,J L LONG MIDDLE,'057905053,'481623001307,6116 REIGER AVE,DALLAS,TX,75214-4534,6116 REIGER AVE,DALLAS,TX,75214-4534,(972) 502-4700,(972) 502-4701,CHooperBarnett@dallasisd.org,www.dallasisd.org/long,CHANDRA D HOOPER BARNETT,DALLAS COUNTY,'057,'10,DALLAS ISD,'057905,REGULAR INSTRUCTIONAL,,'06-08,1456,No,No,Not registered,449181,Active 
school,THOMAS C MARSH MIDDLE,'057905054,'481623001369,3838 CROWN SHORE DR,DALLAS,TX,75244-7198,3838 CROWN SHORE DR,DALLAS,TX,75244-7198,(972) 502-6600,(972) 502-6601,MBUJANDA@dallasisd.org,www.dallasisd.org/marsh,MARTHA D BUJANDA,DALLAS COUNTY,'057,'10,DALLAS ISD,'057905,REGULAR INSTRUCTIONAL,,'06-08,992,No,No,Not registered,449022,Active 
school,THOMAS J RUSK MIDDLE,'057905055,'481623001347,2929 INWOOD RD,DALLAS,TX,75235-7517,2929 INWOOD RD,DALLAS,TX,75235-7517,(972) 925-2000,(972) 925-2001,jcordoba@dallasisd.org,www.dallasisd.org/rusk,JUAN M CORDOBA,DALLAS COUNTY,'057,'10,DALLAS ISD,'057905,REGULAR INSTRUCTIONAL,,'06-08,582,No,No,Not registered,449023,Active 
school,EWELL D WALKER MIDDLE,'057905056,'481623011193,12532 NUESTRA DR,DALLAS,TX,75230,12532 NUESTRA DR,DALLAS,TX,75230,(972) 502-6100,(972) 502-6101,LSTOUT@dallasisd.org,www.dallasisd.org/walker,HOLLY N WALLACE,DALLAS COUNTY,'057,'10,DALLAS ISD,'057905,REGULAR INSTRUCTIONAL,,'06-08,743,No,No,Not registered,449342,Active 
school,ALEX W SPENCE TALENTED/GIFTED ACADEMY,'057905058,'481623001359,4001 CAPITOL AVE,DALLAS,TX,75204-3617,4001 CAPITOL AVE,DALLAS,TX,75204-3617,(972) 925-2300,(972) 925-2301,DHayes-Whigham@dallasisd.org,www.dallasisd.org/spence,SHANNA J JONES,DALLAS COUNTY,'057,'10,DALLAS ISD,'057905,REGULAR INSTRUCTIONAL,,'06-08,724,Yes,No,Not registered,449025,Active 
school,L V STOCKARD MIDDLE,'057905059,'481623001363,2300 S RAVINIA DR,DALLAS,TX,75211-8914,2300 S RAVINIA DR,DALLAS,TX,75211-8914,(972) 794-5700,(972) 794-5701,AVARRASSI@dallasisd.org,www.dallasisd.org/stockard,HEATHER HOLLAND,DALLAS COUNTY,'057,'10,DALLAS ISD,'057905,REGULAR INSTRUCTIONAL,,'06-08,1148,No,No,Not registered,449026,Active 
school,BOUDE STOREY MIDDLE,'057905060,'481623001366,3000 MARYLAND AVE,DALLAS,TX,75216-4334,3000 MARYLAND AVE,DALLAS,TX,75216-4334,(972) 925-8700,(972) 925-8701,jj4238@dallasisd.org,www.dallasisd.org/storey,JACQUELINE Q RIVERS,DALLAS COUNTY,'057,'10,DALLAS ISD,'057905,REGULAR INSTRUCTIONAL,,'06-08,500,No,No,Not registered,449028,Active 
school,BILLY EARL DADE MIDDLE,'057905062,'481623011195,2801 PARK ROW AVE,DALLAS,TX,75215,2801 PARK ROW AVE,DALLAS,TX,75215,(972) 749-3800,(972) 749-3801,TRWASHINGTON@dallasisd.org,www.dallasisd.org/dade,EARL S GILMORE,DALLAS COUNTY,'057,'10,DALLAS ISD,'057905,REGULAR INSTRUCTIONAL,,'06-08,827,No,No,Not registered,449646,Active 
school,RAUL QUINTANILLA SR MIDDLE,'057905068,'481623007566,2700 REMOND DR,DALLAS,TX,75211-1631,2700 REMOND DR,DALLAS,TX,75211-1631,(972) 502-3200,(972) 502-3201,SHUSSAIN@dallasisd.org,www.dallasisd.org/quintanilla,SALEM HUSSAIN,DALLAS COUNTY,'057,'10,DALLAS ISD,'057905,REGULAR INSTRUCTIONAL,,'06-08,690,No,No,Not registered,449179,Active 
school,SEAGOVILLE MIDDLE,'057905069,'481623001353,950 WOODY RD,DALLAS,TX,75253-5065,950 WOODY RD,DALLAS,TX,75253-5065,(972) 892-7100,(972) 892-7101,JChaparro@dallasisd.org,www.dallasisd.org/seagovillems,JESUS F MARTINEZ,DALLAS COUNTY,'057,'10,DALLAS ISD,'057905,REGULAR INSTRUCTIONAL,,'06-08,1462,No,No,Not registered,449024,Active 
school,DALLAS ENVIRONMENTAL SCIENCE ACADEMY,'057905071,'481623005690,3531 N WESTMORELAND RD,DALLAS,TX,75212,3531 N WESTMORELAND RD,DALLAS,TX,75212,(972) 794-3950,(972) 794-3951,ARZUNIGA@dallasisd.org,www.dallasisd.org/desa,ARNOLDO ZUNIGA,DALLAS COUNTY,'057,'10,DALLAS ISD,'057905,REGULAR INSTRUCTIONAL,,'06-08,465,Yes,No,Not registered,449032,Active 
school,SARAH ZUMWALT MIDDLE,'057905072,'481623005864,2445 E LEDBETTER DR,DALLAS,TX,75216,2445 E LEDBETTER DR,DALLAS,TX,75216,(972) 749-3600,(972) 749-3601,TTyson@dallasisd.org,www.dallasisd.org/zumwalt,TROY A TYSON,DALLAS COUNTY,'057,'10,DALLAS ISD,'057905,REGULAR INSTRUCTIONAL,,'06-08,439,No,No,Not registered,449029,Active 
school,HENRY W LONGFELLOW CAREER EXPLORATION ACADEMY,'057905073,'481623006089,5314 BOAZ ST,DALLAS,TX,75209-4202,5314 BOAZ ST,DALLAS,TX,75209-4202,(972) 749-5400,(972) 749-5401,lgaray-hernandez@dallasisd.org,www.dallasisd.org/longfellow,LORENA G HERNANDEZ,DALLAS COUNTY,'057,'10,DALLAS ISD,'057905,REGULAR INSTRUCTIONAL,,'06-08,437,Yes,No,Not registered,449021,Active 
school,HAROLD WENDELL LANG SR MIDDLE,'057905076,'481623010562,1678 CHENAULT,DALLAS,TX,75228,1678 CHENAULT,DALLAS,TX,75228,(972) 925-2400,(972) 925-2401,KRobins@dallasisd.org,www.dallasisd.org/lang,KIMBERLY L ROBINSON,DALLAS COUNTY,'057,'10,DALLAS ISD,'057905,REGULAR INSTRUCTIONAL,,'06-08,928,No,No,Not registered,449149,Active 
school,HECTOR P GARCIA MIDDLE,'057905077,'481623010563,700 E 8TH ST,DALLAS,TX,75203-2378,700 E 8TH ST,DALLAS,TX,75203-2378,(972) 502-5500,(972) 502-5501,GaAuld@dallasisd.org,www.dallasisd.org/garcia,GARY B AULD,DALLAS COUNTY,'057,'10,DALLAS ISD,'057905,REGULAR INSTRUCTIONAL,,'06-08,773,No,No,Not registered,449474,Active 
school,FRANCISCO MEDRANO MIDDLE,'057905079,'481623010564,9815 BROCKBANK,DALLAS,TX,75220,9815 BROCKBANK,DALLAS,TX,75220,(972) 925-1300,(972) 925-1301,tsigurdson@dallasisd.org,www.dallasisd.org/panchomedrano,THERESA FERNANDEZ SIGURDSON,DALLAS COUNTY,'057,'10,DALLAS ISD,'057905,REGULAR INSTRUCTIONAL,,'06-08,1224,No,No,Not registered,449656,Active 
school,SAM TASBY MIDDLE,'057905083,'481623011196,7001 FAIR OAKS AVE,DALLAS,TX,75231,7001 FAIR OAKS AVE,DALLAS,TX,75231,(972) 502-1900,(972) 502-1901,AUDELACRUZ@dallasisd.org,www.dallasisd.org/tasby,AUDREY L DELACRUZ,DALLAS COUNTY,'057,'10,DALLAS ISD,'057905,REGULAR INSTRUCTIONAL,,'06-08,916,No,No,Not registered,449340,Active 
school,KATHLYN JOY GILLIAM COLLEGIATE ACADEMY,'057905085,'481623012028,1700 E CAMP WISDOM,DALLAS,TX,75241,1700 E CAMP WISDOM,DALLAS,TX,75241,(214) 932-7300,(214) 932-7301,GSMITH@dallasisd.org,www.dallasisd.org/Page/1948,GAYLE SMITH,DALLAS COUNTY,'057,'10,DALLAS ISD,'057905,REGULAR INSTRUCTIONAL,,'09-12,373,No,No,Not registered,441861,Active 
school,TRINIDAD GARZA EARLY COLLEGE AT MT VIEW,'057905088,'481623011197,4849 ILLINOIS AVE STE W53A,DALLAS,TX,75211,4849 ILLINOIS AVE STE W53A,DALLAS,TX,75211,(214) 860-3680,(214) 860-3689,MacHernandez@dallasisd.org,www.dallasisd.org/garza,MACARIO FIDEL HERNANDEZ,DALLAS COUNTY,'057,'10,DALLAS ISD,'057905,REGULAR INSTRUCTIONAL,,'09-12,450,No,No,Not registered,441849,Active 
school,DR WRIGHT L LASSITER JR EARLY COLLEGE H S,'057905090,'481623006532,701 ELM ST 1ST FLOOR,DALLAS,TX,75202,701 ELM ST 1ST FLOOR,DALLAS,TX,75202,(214) 860-2356,(214) 860-2359,mstama@dallasisd.org,www.dallasisd.org/lassiter,MICHAEL HOYT ST AMA,DALLAS COUNTY,'057,'10,DALLAS ISD,'057905,REGULAR INSTRUCTIONAL,,'09-12,252,No,No,Not registered,441778,Active 
school,JUVENILE JUSTICE AEP,'057905096,'481623010565,1673 TERRE COLONY,DALLAS,TX,75212,1673 TERRE COLONY,DALLAS,TX,75212,(972) 925-5547,(972) 000-0000,janeallen@dallasisd.org,,JANET ALLEN,DALLAS COUNTY,'057,'10,DALLAS ISD,'057905,JJAEP INSTRUCTIONAL,,'KG-12,12,No,No,Not registered,,Active 
school,HOSPITAL/HOMEBOUND,'057905099,'481623006391,912 S ERVAY STE 309,DALLAS,TX,75201-6426,912 S ERVAY STE 309,DALLAS,TX,75201-6426,(972) 581-4115,(972) 581-4111,NotApplicable@dallasisd.org,,SPECIAL ED DEPARTMENT,DALLAS COUNTY,'057,'10,DALLAS ISD,'057905,ALTERNATIVE INSTRUCTIONAL,,'EE KG-12,90,No,No,Registered,,Active 
school,ZAN WESLEY HOLMES JR MIDDLE,'057905100,'481623012869,2939 ST RITA DR,DALLAS,TX,75233,2939 ST RITA DR,DALLAS,TX,75233,(214) 932-7800,(972) 932-7801,BMoham@dallasisd.org,www.dallasisd.org/zwholmes,BARBARA FRANKLIN MOHAM,DALLAS COUNTY,'057,'10,DALLAS ISD,'057905,REGULAR INSTRUCTIONAL,,'06-08,757,No,No,Not registered,449848,Active 
school,JOHN Q ADAMS EL,'057905101,'481623001287,8239 LK JUNE RD,DALLAS,TX,75217-2104,8239 LK JUNE RD,DALLAS,TX,75217-2104,(972) 794-1200,(972) 794-1201,MTotsukaReyes@dallasisd.org,www.dallasisd.org/jqadams,MARIA DE LOS ANGELES TOTSUKA REYES,DALLAS COUNTY,'057,'10,DALLAS ISD,'057905,REGULAR INSTRUCTIONAL,,'PK-05,661,No,No,Not registered,,Active 
school,PREK PARTNERSHIP CENTER,'057905102,'481623013334,2909 N BUCKNER ROOM 703,DALLAS,TX,75228,2909 N BUCKNER ROOM 703,DALLAS,TX,75228,(972) 925-6786,(972) 794-3519,ycardoza@dallasisd.org,www.dallasisd.org/Domain/10504,MARIA MOLINARES,DALLAS COUNTY,'057,'10,DALLAS ISD,'057905,REGULAR INSTRUCTIONAL,,'PK,1260,No,No,Not registered,,Active 
school,GABE P ALLEN CHARTER SCHOOL,'057905103,'481623001208,5220 NOMAS ST,DALLAS,TX,75212-3229,5220 NOMAS ST,DALLAS,TX,75212-3229,(972) 794-5100,(972) 794-5101,SOrtizEspinell@dallasisd.org,www.dallasisd.org/allen,SHEILA ORTIZ ESPINELL,DALLAS COUNTY,'057,'10,DALLAS ISD,'057905,REGULAR INSTRUCTIONAL,,'PK-06,462,No,No,Not registered,,Active 
school,WILLIAM M ANDERSON EL,'057905104,'481623001384,620 N ST AUGUSTINE DR,DALLAS,TX,75217-4111,620 N ST AUGUSTINE DR,DALLAS,TX,75217-4111,(972) 749-6200,(972) 749-6201,sylvgarc@dallasisd.org,www.dallasisd.org/domain/2125,SILVIA G GARCIA,DALLAS COUNTY,'057,'10,DALLAS ISD,'057905,REGULAR INSTRUCTIONAL,,'PK-05,634,No,No,Not registered,,Active 
school,ARCADIA PARK EL,'057905105,'481623001209,1300 N JUSTIN AVE,DALLAS,TX,75211,1300 N JUSTIN AVE,DALLAS,TX,75211,(972) 502-5300,(972) 502-5301,KeOhara@dallasisd.org,www.dallasisd.org/arcadiapark,KELLY S OHARA,DALLAS COUNTY,'057,'10,DALLAS ISD,'057905,REGULAR INSTRUCTIONAL,,'PK-06,676,No,No,Not registered,,Active 
school,JOSE 'JOE' MAY EL,'057905107,'481623012062,9818 BROCKBANK DR,DALLAS,TX,75220,9818 BROCKBANK DR,DALLAS,TX,75220,(972) 749-4800,(972) 749-4801,IRivera@dallasisd.org,,ISRAEL RIVERA,DALLAS COUNTY,'057,'10,DALLAS ISD,'057905,REGULAR INSTRUCTIONAL,,'PK-05,827,No,No,Not registered,,Active 
school,BAYLES EL,'057905108,'481623001212,2444 TELEGRAPH AVE,DALLAS,TX,75228-5819,2444 TELEGRAPH AVE,DALLAS,TX,75228-5819,(972) 749-8900,(972) 749-8901,RobWilson@dallasisd.org,www.dallasisd.org/bayles,GLORIA F KENNEDY,DALLAS COUNTY,'057,'10,DALLAS ISD,'057905,REGULAR INSTRUCTIONAL,,'EE-05,481,No,No,Not registered,,Active 
school,W A BLAIR EL,'057905109,'481623001213,7720 GAYGLEN DR,DALLAS,TX,75217-6715,7720 GAYGLEN DR,DALLAS,TX,75217-6715,(972) 794-1600,(972) 794-1601,UTurner@dallasisd.org,www.dallasisd.org/blair,UMOJA S TURNER,DALLAS COUNTY,'057,'10,DALLAS ISD,'057905,REGULAR INSTRUCTIONAL,,'PK-05,558,No,No,Not registered,,Active 
school,ANNIE WEBB BLANTON EL,'057905110,'481623001214,8915 GREENMOUND AVE,DALLAS,TX,75227-8399,8915 GREENMOUND AVE,DALLAS,TX,75227-8399,(972) 794-1700,(972) 794-1701,LAGARZA@dallasisd.org,www.dallasisd.org/blanton,ALICIA D IWASKO,DALLAS COUNTY,'057,'10,DALLAS ISD,'057905,REGULAR INSTRUCTIONAL,,'EE-05,628,No,No,Not registered,,Active 
school,JAMES BOWIE EL,'057905112,'481623001215,330 N MARSALIS AVE,DALLAS,TX,75203-1714,330 N MARSALIS AVE,DALLAS,TX,75203-1714,(972) 925-6600,(972) 925-6601,ccastro@dallasisd.org,www.dallasisd.org/bowie,CAROLINE NOELLE WILSON,DALLAS COUNTY,'057,'10,DALLAS ISD,'057905,REGULAR INSTRUCTIONAL,,'PK-05,413,No,No,Not registered,,Active 
school,JOHN NEELY BRYAN EL,'057905114,'481623001218,2001 DEER PATH DR,DALLAS,TX,75216-4601,2001 DEER PATH DR,DALLAS,TX,75216-4601,(972) 502-8500,(972) 502-8501,tonanderson@dallasisd.org,dallasisd.org/bryan,TONYA M ANDERSON,DALLAS COUNTY,'057,'10,DALLAS ISD,'057905,REGULAR INSTRUCTIONAL,,'PK-05,354,No,No,Not registered,,Active 
school,HARRELL BUDD EL,'057905115,'481623001221,2121 S MARSALIS AVE,DALLAS,TX,75216-2311,2121 S MARSALIS AVE,DALLAS,TX,75216-2311,(972) 502-8400,(972) 502-8401,ABarnes@dallasisd.org,www.dallasisd.org/budd,ANITA BARNES,DALLAS COUNTY,'057,'10,DALLAS ISD,'057905,REGULAR INSTRUCTIONAL,,'PK-05,515,No,No,Not registered,,Active 
school,DAVID G BURNET EL,'057905116,'481623001223,3200 KINKAID DR,DALLAS,TX,75220-1623,3200 KINKAID DR,DALLAS,TX,75220-1623,(972) 794-3000,(972) 794-3001,SLOSKOT@dallasisd.org,www.dallasisd.org/burnet,SONIA P LOSKOT,DALLAS COUNTY,'057,'10,DALLAS ISD,'057905,REGULAR INSTRUCTIONAL,,'EE-05,623,No,No,Not registered,,Active 
school,RUFUS C BURLESON EL,'057905117,'481623001222,6300 ELAM RD,DALLAS,TX,75217-5665,6300 ELAM RD,DALLAS,TX,75217-5665,(972) 749-4500,(972) 749-4501,LaJohnson@dallasisd.org,www.dallasisd.org/Domain/483,LAJOYCE S JOHNSON,DALLAS COUNTY,'057,'10,DALLAS ISD,'057905,REGULAR INSTRUCTIONAL,,'PK-05,561,No,No,Not registered,,Active 
school,W W BUSHMAN EL,'057905118,'481623001224,4200 BONNIE VIEW RD,DALLAS,TX,75216-6608,4200 BONNIE VIEW RD,DALLAS,TX,75216-6608,(972) 749-1800,(972) 749-1801,YKNIGHT@dallasisd.org,www.dallasisd.org/bushman,YOLANDA KNIGHT,DALLAS COUNTY,'057,'10,DALLAS ISD,'057905,REGULAR INSTRUCTIONAL,,'PK-05,397,No,No,Not registered,,Active 
school,CHAPEL HILL PREPARATORY-A PERSONALIZED LRNING SCH,'057905119,'481623001385,12701 TEMPLETON TRL,DALLAS,TX,75234-6563,12701 TEMPLETON TRL,DALLAS,TX,75234-6563,(972) 794-2400,(972) 794-2401,FHYPOLITE@dallasisd.org,www.dallasisd.org/cabell,FABIAN A HYPOLITE,DALLAS COUNTY,'057,'10,DALLAS ISD,'057905,REGULAR INSTRUCTIONAL,,'EE-05,470,No,No,Not registered,,Active 
school,F P CAILLET EL,'057905120,'481623001226,3033 MERRELL RD,DALLAS,TX,75229-4973,3033 MERRELL RD,DALLAS,TX,75229-4973,(972) 794-3200,(972) 794-3201,JPANTOJA@dallasisd.org,www.dallasisd.org/caillet,OSCAR NANDAYAPA,DALLAS COUNTY,'057,'10,DALLAS ISD,'057905,REGULAR INSTRUCTIONAL,,'PK-05,647,No,No,Not registered,,Active 
school,JOHN W CARPENTER EL,'057905121,'481623001227,2121 TOSCA LN,DALLAS,TX,75224-4179,2121 TOSCA LN,DALLAS,TX,75224-4179,(972) 794-6000,(972) 794-6001,chcurtis@dallasisd.org,www.dallasisd.org/carpenter,VERNA FARMER,DALLAS COUNTY,'057,'10,DALLAS ISD,'057905,REGULAR INSTRUCTIONAL,,'PK-05,278,No,No,Not registered,,Active 
school,C F CARR EL,'057905122,'481623001228,1952 BAYSIDE ST,DALLAS,TX,75212-1713,1952 BAYSIDE ST,DALLAS,TX,75212-1713,(972) 794-4300,(972) 794-4301,CATHOMAS@dallasisd.org,www.dallasisd.org/carr,CARLOTTA HOOKS,DALLAS COUNTY,'057,'10,DALLAS ISD,'057905,REGULAR INSTRUCTIONAL,,'PK-06,309,No,No,Not registered,,Active 
school,CASA VIEW EL,'057905125,'481623001232,2100 N FAROLA DR,DALLAS,TX,75228-2226,2100 N FAROLA DR,DALLAS,TX,75228-2226,(972) 749-7700,(972) 749-7701,TGARIBAY@dallasisd.org,www.dallasisd.org/casaview,THANIA GARIBAY,DALLAS COUNTY,'057,'10,DALLAS ISD,'057905,REGULAR INSTRUCTIONAL,,'EE-05,672,No,No,Not registered,,Active 
school,CENTRAL EL,'057905126,'481623001233,902 SHADY LN,SEAGOVILLE,TX,75159-2628,902 SHADY LN,SEAGOVILLE,TX,75159-2628,(972) 749-6800,(972) 749-6801,JuMiller@dallasisd.org,www.dallasisd.org/central,JULIE D SINGLETON,DALLAS COUNTY,'057,'10,DALLAS ISD,'057905,REGULAR INSTRUCTIONAL,,'EE-05,594,No,No,Not registered,,Active 
school,MARTIN LUTHER KING JR LEARNING CENTER,'057905128,'481623001238,1817 WARREN AVE,DALLAS,TX,75215-3475,1817 WARREN AVE,DALLAS,TX,75215-3475,(972) 502-8100,(972) 502-8101,GlPatrick@dallasisd.org,www.dallasisd.org/mlk,ROCKELL L STEWART,DALLAS COUNTY,'057,'10,DALLAS ISD,'057905,REGULAR INSTRUCTIONAL,,'PK-05,449,No,No,Not registered,,Active 
school,S S CONNER EL,'057905129,'481623001240,3037 GREENMEADOW DR,DALLAS,TX,75228,3037 GREENMEADOW DR,DALLAS,TX,75228-5124,(972) 749-8200,(972) 749-8201,kiaking@dallasisd.org,www.dallasisd.org/conner,KIASHAN KING,DALLAS COUNTY,'057,'10,DALLAS ISD,'057905,REGULAR INSTRUCTIONAL,,'EE-05,625,No,No,Not registered,,Active 
school,LEILA P COWART EL,'057905130,'481623001241,1515 S RAVINIA DR,DALLAS,TX,75211-5742,1515 S RAVINIA DR,DALLAS,TX,75211-5742,(972) 794-5500,(972) 794-5501,LUCSALINAS@dallasisd.org,www.dallasisd.org/cowart,LUCIA SALINAS,DALLAS COUNTY,'057,'10,DALLAS ISD,'057905,REGULAR INSTRUCTIONAL,,'EE-05,585,No,No,Not registered,,Active 
school,IGNACIO ZARAGOZA EL,'057905131,'481623001243,4550 WORTH ST,DALLAS,TX,75246-1101,4550 WORTH ST,DALLAS,TX,75246-1101,(972) 749-8600,(972) 749-8601,ANBELL@dallasisd.org,www.dallasisd.org/zaragoza,LINDA OLIVAREZ,DALLAS COUNTY,'057,'10,DALLAS ISD,'057905,REGULAR INSTRUCTIONAL,,'PK-05,351,No,No,Not registered,,Active 
school,BARBARA JORDAN EL,'057905133,'481623001246,1111 W KIEST BLVD,DALLAS,TX,75224-3230,1111 W KIEST BLVD,DALLAS,TX,75224-3230,(972) 925-8100,(972) 925-8101,lhopkins@dallasisd.org,www.dallasisd.org/jordan,LUCY S HOPKINS,DALLAS COUNTY,'057,'10,DALLAS ISD,'057905,REGULAR INSTRUCTIONAL,,'EE-05,521,No,No,Not registered,,Active 
school,GEORGE B DEALEY MONTESSORI ACADEMY,'057905134,'481623006932,6501 ROYAL LN,DALLAS,TX,75230-4174,6501 ROYAL LN,DALLAS,TX,75230-4174,(972) 794-8400,(972) 794-8401,BeLusk@dallasisd.org,www.dallasisd.org/Page/2268,BETH G WING,DALLAS COUNTY,'057,'10,DALLAS ISD,'057905,REGULAR INSTRUCTIONAL,,'PK-08,633,Yes,No,Not registered,449437,Active 
school,EVERETTE LEE DEGOLYER EL,'057905135,'481623006933,3453 FLAIR DR,DALLAS,TX,75229-2603,3453 FLAIR DR,DALLAS,TX,75229-2603,(972) 794-2800,(972) 794-2801,tarmays@dallasisd.org,www.dallasisd.org/degolyer,TARA L MAYS,DALLAS COUNTY,'057,'10,DALLAS ISD,'057905,REGULAR INSTRUCTIONAL,,'PK-05,399,No,No,Not registered,,Active 
school,L O DONALD EL,'057905136,'481623001249,1218 PHINNEY AVE,DALLAS,TX,75211-6235,1218 PHINNEY AVE,DALLAS,TX,75211-6235,(972) 794-5300,(972) 794-5301,KACARTER@dallasisd.org,www.dallasisd.org/donald,KATHRYN J CARTER,DALLAS COUNTY,'057,'10,DALLAS ISD,'057905,REGULAR INSTRUCTIONAL,,'PK-05,403,No,No,Not registered,,Active 
school,JULIUS DORSEY EL,'057905137,'481623001250,133 N ST AUGUSTINE DR,DALLAS,TX,75217-7214,133 N ST AUGUSTINE DR,DALLAS,TX,75217-7214,(972) 749-6300,(972) 749-6301,RUSANCHEZ@dallasisd.org,www.dallasisd.org/Domain/504,RUBINNA A SANCHEZ,DALLAS COUNTY,'057,'10,DALLAS ISD,'057905,REGULAR INSTRUCTIONAL,,'PK-05,466,No,No,Not registered,,Active 
school,PAUL L DUNBAR LEARNING CENTER,'057905139,'481623001325,4200 METROPOLITAN AVE,DALLAS,TX,75210-1123,4200 METROPOLITAN AVE,DALLAS,TX,75210-1123,(972) 794-6600,(972) 794-6601,VFARMER@dallasisd.org,www.dallasisd.org/dunbar,ALPHER GARRETT-JONES,DALLAS COUNTY,'057,'10,DALLAS ISD,'057905,REGULAR INSTRUCTIONAL,,'EE-05,514,No,No,Not registered,,Active 
school,JILL STONE EL AT VICKERY MEADOW,'057905141,'481623007855,6606 RIDGECREST RD,DALLAS,TX,75231-7002,6606 RIDGECREST RD,DALLAS,TX,75231-7002,(972) 502-7900,(972) 502-7901,rpratt@dallasisd.org,www.dallasisd.org/Page/2466,ROSALINDA PRATT,DALLAS COUNTY,'057,'10,DALLAS ISD,'057905,REGULAR INSTRUCTIONAL,,'PK-05,301,No,No,Not registered,,Active 
school,J N ERVIN EL,'057905142,'481623005442,3722 BLACK OAK DR,DALLAS,TX,75241-3307,3722 BLACK OAK DR,DALLAS,TX,75241-3307,(972) 749-3700,(972) 749-3701,JAWALLACE@dallasisd.org,www.dallasisd.org/ervin,JAMES WALLACE,DALLAS COUNTY,'057,'10,DALLAS ISD,'057905,REGULAR INSTRUCTIONAL,,'PK-05,640,No,No,Not registered,,Active 
school,STEPHEN C FOSTER EL,'057905145,'481623001258,3700 CLOVER LN,DALLAS,TX,75220-3610,3700 CLOVER LN,DALLAS,TX,75220-3610,(972) 794-8100,(972) 794-8101,IDELAGUARDIA@dallasisd.org,www.dallasisd.org/foster,IRMA P DE LA GUARDIA,DALLAS COUNTY,'057,'10,DALLAS ISD,'057905,REGULAR INSTRUCTIONAL,,'EE-05,660,No,No,Not registered,,Active 
school,CHARLES A GILL EL,'057905147,'481623001264,10910 FERGUSON RD,DALLAS,TX,75228-2376,10910 FERGUSON RD,DALLAS,TX,75228-2376,(972) 749-8400,(972) 749-8401,SFREELON@dallasisd.org,www.dallasisd.org/gill,SHAWKI FREELON,DALLAS COUNTY,'057,'10,DALLAS ISD,'057905,REGULAR INSTRUCTIONAL,,'PK-05,720,No,No,Not registered,,Active 
school,TOM C GOOCH EL,'057905148,'481623001265,4030 CALCULUS RD,DALLAS,TX,75244-7215,4030 CALCULUS RD,DALLAS,TX,75244-7215,(972) 794-2500,(972) 794-2501,KPRAYS@DALLASISD.ORG,www.dallasisd.org/gooch,KIM L ASHMORE,DALLAS COUNTY,'057,'10,DALLAS ISD,'057905,REGULAR INSTRUCTIONAL,,'EE-05,406,No,No,Not registered,,Active 
school,LENORE KIRK HALL EL,'057905149,'481623001268,2120 KEATS DR,DALLAS,TX,75211-8538,2120 KEATS DR,DALLAS,TX,75211-8538,(972) 794-5400,(972) 794-5401,ADRGONZALEZ@dallasisd.org,www.dallasisd.org/hall,OLGA ROMERO,DALLAS COUNTY,'057,'10,DALLAS ISD,'057905,REGULAR INSTRUCTIONAL,,'PK-05,487,No,No,Not registered,,Active 
school,MARGARET B HENDERSON EL,'057905152,'481623001274,2200 S EDGEFIELD AVE,DALLAS,TX,75224-1142,2200 S EDGEFIELD AVE,DALLAS,TX,75224-1142,(972) 749-2900,(972) 749-2901,iescobedo@dallasisd.org,www.dallasisd.org/henderson,IDA C ESCOBEDO,DALLAS COUNTY,'057,'10,DALLAS ISD,'057905,REGULAR INSTRUCTIONAL,,'PK-05,441,No,No,Not registered,,Active 
school,VICTOR H HEXTER EL,'057905153,'481623001275,9720 WATERVIEW RD,DALLAS,TX,75218-2137,9720 WATERVIEW RD,DALLAS,TX,75218-2137,(972) 502-5800,(972) 502-5801,JENJACKSON@dallasisd.org,www.dallasisd.org/hexter,JENNIFER KAREN JACKSON,DALLAS COUNTY,'057,'10,DALLAS ISD,'057905,REGULAR INSTRUCTIONAL,,'PK-05,527,No,No,Not registered,,Active 
school,LARRY G SMITH EL,'057905154,'481623010566,5299 GUS THOMASSON RD,MESQUITE,TX,75150-1064,5299 GUS THOMASSON RD,MESQUTE,TX,75150-1064,(972) 502-4800,(972) 502-4801,lomorris@dallasisd.org,www.dallasisd.org/lgsmith,LORA D MORRIS,DALLAS COUNTY,'057,'10,DALLAS ISD,'057905,REGULAR INSTRUCTIONAL,,'EE-05,834,No,No,Not registered,,Active 
school,C A TATUM JR EL,'057905155,'481623010567,3002 ST AUGUSTINE RD,DALLAS,TX,75227,3002 ST AUGUSTINE RD,DALLAS,TX,75227,(972) 502-2000,(972) 502-2001,jpecina@dallasisd.org,www.dallasisd.org/tatum,ENRIQUE RODRIGUEZ,DALLAS COUNTY,'057,'10,DALLAS ISD,'057905,REGULAR INSTRUCTIONAL,,'KG-05,440,No,No,Not registered,,Active 
school,NATHANIEL HAWTHORNE EL,'057905156,'481623001272,7800 UMPHRESS RD,DALLAS,TX,75217-1814,7800 UMPHRESS RD,DALLAS,TX,75217-1814,(972) 749-4700,(972) 749-4701,ANFERNANDEZ@dallasisd.org,www.dallasisd.org/hawthorne,ANA G FERNANDEZ,DALLAS COUNTY,'057,'10,DALLAS ISD,'057905,REGULAR INSTRUCTIONAL,,'EE-05,468,No,No,Not registered,,Active 
school,JAMES S HOGG EL,'057905157,'481623001278,1144 N MADISON AVE,DALLAS,TX,75208-4132,1144 N MADISON AVE,DALLAS,TX,75208-4132,(972) 502-8600,(972) 502-8601,JCasco@dallasisd.org,www.dallasisd.org/hogg,JAIRO CASCO,DALLAS COUNTY,'057,'10,DALLAS ISD,'057905,REGULAR INSTRUCTIONAL,,'EE-05,297,No,No,Not registered,,Active 
school,LIDA HOOE EL,'057905158,'481623001281,2419 GLADSTONE DR,DALLAS,TX,75211-5312,2419 GLADSTONE DR,DALLAS,TX,75211-5312,(972) 794-6700,(972) 794-6701,ferodriguez@dallasisd.org,www.dallasisd.org/hooe,FERNANDO RODRIGUEZ,DALLAS COUNTY,'057,'10,DALLAS ISD,'057905,REGULAR INSTRUCTIONAL,,'EE-05,425,No,No,Not registered,,Active 
school,L L HOTCHKISS EL,'057905159,'481623001282,6929 TOWN N DR,DALLAS,TX,75231-8117,6929 TOWN N DR,DALLAS,TX,75231-8117,(972) 749-7000,(972) 749-7001,ccriner@dallasisd.org,www.dallasisd.org/hotchkiss,ROCIO S BERNAL,DALLAS COUNTY,'057,'10,DALLAS ISD,'057905,REGULAR INSTRUCTIONAL,,'PK-05,716,No,No,Not registered,,Active 
school,PERSONALIZED LEARNING PREPARATORY AT SAM HOUSTON,'057905160,'481623001283,2827 THROCKMORTON AVE,DALLAS,TX,75219-3447,2827 THROCKMORTON AVE,DALLAS,TX,75219-3447,(972) 749-5800,(972) 749-5801,onandayapa@dallasisd.org,www.dallasisd.org/houston,RAYMIE L VENABLE,DALLAS COUNTY,'057,'10,DALLAS ISD,'057905,REGULAR INSTRUCTIONAL,,'PK-05,233,No,No,Not registered,,Active 
school,JOHN IRELAND EL,'057905161,'481623001285,1515 N JIM MILLER RD,DALLAS,TX,75217-1319,1515 N JIM MILLER RD,DALLAS,TX,75217-1319,(972) 749-4900,(972) 749-4901,SAMAYA@dallasisd.org,www.dallasisd.org/ireland,STEPHANIE AMAYA,DALLAS COUNTY,'057,'10,DALLAS ISD,'057905,REGULAR INSTRUCTIONAL,,'PK-05,486,No,No,Not registered,,Active 
school,MOCKINGBIRD EL,'057905162,'481623001365,5828 E MOCKINGBIRD LN,DALLAS,TX,75206-5424,5828 E MOCKINGBIRD LN,DALLAS,TX,75206-5424,(972) 749-7200,(972) 749-7201,MEPOTTS@dallasisd.org,www.dallasisd.org/sjackson,MELANIE A MANS,DALLAS COUNTY,'057,'10,DALLAS ISD,'057905,REGULAR INSTRUCTIONAL,,'KG-05,704,No,No,Not registered,,Active 
school,CEDAR CREST EL,'057905163,'481623001290,2020 MOUSER ST,DALLAS,TX,75203-3942,2020 MOUSER ST,DALLAS,TX,75203-3942,(972) 925-7400,(972) 925-7401,MICHELEMARTIN@DALLASISD.ORG,www.dallasisd.org/johnston,CONSTANCE JAWAID,DALLAS COUNTY,'057,'10,DALLAS ISD,'057905,REGULAR INSTRUCTIONAL,,'PK-05,370,No,No,Not registered,,Active 
school,ANSON JONES EL,'057905164,'481623001291,3901 MEREDITH AVE,DALLAS,TX,75211-4761,3901 MEREDITH AVE,DALLAS,TX,75211-4761,(972) 794-4700,(972) 794-4701,ALBHERRERA@dallasisd.org,www.dallasisd.org/jones,GUILLERMO R CORTEZ,DALLAS COUNTY,'057,'10,DALLAS ISD,'057905,REGULAR INSTRUCTIONAL,,'EE-06,614,No,No,Not registered,,Active 
school,EDWIN J KIEST EL,'057905166,'481623001294,2611 HEALEY DR,DALLAS,TX,75228-3545,2611 HEALEY DR,DALLAS,TX,75228-3545,(972) 502-5600,(972) 502-5601,yacruz@dallasisd.org,www.dallasisd.org/kiest,GERARDO HERNANDEZ,DALLAS COUNTY,'057,'10,DALLAS ISD,'057905,REGULAR INSTRUCTIONAL,,'PK-05,699,No,No,Not registered,,Active 
school,KLEBERG EL,'057905167,'481623001296,1450 EDD RD,DALLAS,TX,75253-4801,1450 EDD RD,DALLAS,TX,75253-4801,(972) 749-6500,(972) 749-6501,azbylut@dallasisd.org,www.dallasisd.org/kleberg,AMY K ZBYLUT,DALLAS COUNTY,'057,'10,DALLAS ISD,'057905,REGULAR INSTRUCTIONAL,,'PK-05,775,No,No,Not registered,,Active 
school,OBADIAH KNIGHT EL,'057905168,'481623001297,2615 ANSON RD,DALLAS,TX,75235-3798,2615 ANSON RD,DALLAS,TX,75235-3798,(972) 749-5300,(972) 749-5301,ENESCOBEDO@dallasisd.org,www.dallasisd.org/knight,ENRIQUE ESCOBEDO,DALLAS COUNTY,'057,'10,DALLAS ISD,'057905,REGULAR INSTRUCTIONAL,,'PK-05,451,No,No,Not registered,,Active 
school,ARTHUR KRAMER EL,'057905169,'481623006681,7131 MIDBURY DR,DALLAS,TX,75230-3168,7131 MIDBURY DR,DALLAS,TX,75230-3168,(972) 794-8300,(972) 794-8301,KATEWALKER@dallasisd.org,www.dallasisd.org/kramer,KATE WALKER,DALLAS COUNTY,'057,'10,DALLAS ISD,'057905,REGULAR INSTRUCTIONAL,,'EE-05,628,No,No,Not registered,,Active 
school,RICHARD LAGOW EL,'057905170,'481623001299,637 EDGEWORTH DR,DALLAS,TX,75217-8108,687 EDGEWORTH DR,DALLAS,TX,75217-8108,(972) 749-6600,(972) 749-6601,jluedecke@dallasisd.org,www.dallasisd.org/lagow,JOSEPH A LUEDECKE,DALLAS COUNTY,'057,'10,DALLAS ISD,'057905,REGULAR INSTRUCTIONAL,,'EE-05,535,No,No,Not registered,,Active 
school,LAKEWOOD EL,'057905171,'481623001300,3000 HILLBROOK ST,DALLAS,TX,75214-3412,3000 HILLBROOK ST,DALLAS,TX,75214-3412,(972) 749-7300,(972) 749-7301,KWILKE@dallasisd.org,www.dallasisd.org/lakewood,NICOLA THORN,DALLAS COUNTY,'057,'10,DALLAS ISD,'057905,REGULAR INSTRUCTIONAL,,'KG-05,1007,No,No,Not registered,,Active 
school,JIMMIE TYLER BRASHEAR EL,'057905172,'481623010568,2959 HAMPTON RD,DALLAS,TX,75204,2959 HAMPTON RD,DALLAS,TX,75204,(972) 502-2600,(972) 502-2601,SBarnes@dallasisd.org,www.dallasisd.org/brashear,SONJA LYNN BARNES,DALLAS COUNTY,'057,'10,DALLAS ISD,'057905,REGULAR INSTRUCTIONAL,,'EE-05,697,No,No,Not registered,,Active 
school,SIDNEY LANIER EXPRESSIVE ARTS VANGUARD,'057905173,'481623001301,1400 WALMSLEY AVE,DALLAS,TX,75208-1551,1400 WALMSLEY AVE,DALLAS,TX,75208-1551,(972) 794-4400,(972) 794-4401,aperaza@dallasisd.org,www.dallasisd.org/lanier,ALYSSA C PERAZA,DALLAS COUNTY,'057,'10,DALLAS ISD,'057905,REGULAR INSTRUCTIONAL,,'PK-07,708,Yes,No,Not registered,,Active 
school,GENEVA HEIGHTS EL,'057905174,'481623001302,2911 DELMAR AVE,DALLAS,TX,75206-6102,2911 DELMAR AVE,DALLAS,TX,75206-6102,(972) 749-7400,(972) 749-7401,BHart@dallasisd.org,www.dallasisd.org/relee,BERNARD E HART,DALLAS COUNTY,'057,'10,DALLAS ISD,'057905,REGULAR INSTRUCTIONAL,,'EE-05,434,No,No,Not registered,,Active 
school,UMPHREY LEE EL,'057905175,'481623001303,7808 RACINE DR,DALLAS,TX,75232-4302,7808 RACINE DR,DALLAS,TX,75232-4302,(972) 749-3900,(972) 749-3901,RClayton@dallasisd.org,www.dallasisd.org/ulee,STEPHANIE MCCLOUD,DALLAS COUNTY,'057,'10,DALLAS ISD,'057905,REGULAR INSTRUCTIONAL,,'EE-05,460,No,No,Not registered,,Active 
school,JACK LOWE SR EL,'057905176,'481623010569,7000 HOLLY HILL DR,DALLAS,TX,75231,7000 HOLLY HILL DR,DALLAS,TX,75231,(972) 502-1700,(972) 502-1701,sabarrios@DALLASISD.ORG,www.dallasisd.org/lowe,SANDRA BARRIOS,DALLAS COUNTY,'057,'10,DALLAS ISD,'057905,REGULAR INSTRUCTIONAL,,'EE-05,594,No,No,Not registered,,Active 
school,WILLIAM LIPSCOMB EL,'057905177,'481623001305,5801 WORTH ST,DALLAS,TX,75214-4645,5801 WORTH ST,DALLAS,TX,75214-4645,(972) 794-7300,(972) 794-7301,DBRIONES@dallasisd.org,www.dallasisd.org/lipscomb,MICHAEL P SANDOVAL,DALLAS COUNTY,'057,'10,DALLAS ISD,'057905,REGULAR INSTRUCTIONAL,,'PK-05,462,No,No,Not registered,,Active 
school,H I HOLLAND EL AT LISBON,'057905178,'481623001306,4203 S LANCASTER RD,DALLAS,TX,75216-6458,4203 S LANCASTER RD,DALLAS,TX,75216-6458,(972) 749-1900,(972) 749-1901,KWylie@dallasisd.org,www.dallasisd.org/holland,SHANIEKA CHRISTMAS-MCDONALD,DALLAS COUNTY,'057,'10,DALLAS ISD,'057905,REGULAR INSTRUCTIONAL,,'EE-05,418,No,No,Not registered,,Active 
school,B H MACON EL,'057905180,'481623001310,650 HOLCOMB RD,DALLAS,TX,75217-4409,650 HOLCOMB RD,DALLAS,TX,75217-4409,(972) 794-1500,(972) 794-1501,gbennett@dallasisd.org,www.dallasisd.org/macon,ANTONIO L VERDUZCO,DALLAS COUNTY,'057,'10,DALLAS ISD,'057905,REGULAR INSTRUCTIONAL,,'PK-05,486,No,No,Not registered,,Active 
school,MAPLE LAWN EL,'057905181,'481623001312,3120 INWOOD RD,DALLAS,TX,75235-7626,3120 INWOOD RD,DALLAS,TX,75235-7626,(972) 925-2500,(972) 925-2501,CDERRICK@dallasisd.org,www.dallasisd.org/maplelawn,OSCAR APONTE,DALLAS COUNTY,'057,'10,DALLAS ISD,'057905,REGULAR INSTRUCTIONAL,,'PK-05,636,No,No,Not registered,,Active 
school,HERBERT MARCUS EL,'057905182,'481623001313,2911 NORTHAVEN RD,DALLAS,TX,75229-2402,2911 NORTHAVEN RD,DALLAS,TX,75229-2402,(972) 794-2900,(972) 794-2901,HOWALLACE@dallasisd.org,www.dallasisd.org/marcus,CARLOS ROMERO URDIALES,DALLAS COUNTY,'057,'10,DALLAS ISD,'057905,REGULAR INSTRUCTIONAL,,'PK-05,723,No,No,Not registered,,Active 
school,THOMAS L MARSALIS EL,'057905183,'481623001370,5640 S MARSALIS AVE,DALLAS,TX,75241-1999,5640 S MARSALIS AVE,DALLAS,TX,75241-1999,(972) 749-3500,(972) 749-3501,kr2404@dallasisd.org,www.dallasisd.org/marsalis,KIMBERLY M RICHARDSON,DALLAS COUNTY,'057,'10,DALLAS ISD,'057905,REGULAR INSTRUCTIONAL,,'EE-05,459,No,No,Not registered,,Active 
school,BEN MILAM EL,'057905184,'481623001318,4200 MCKINNEY AVE,DALLAS,TX,75205-4526,4200 MCKINNEY AVE,DALLAS,TX,75205-4526,(972) 749-5600,(972) 749-5601,ANNAGALVAN@dallasisd.org,www.dallasisd.org/milam,ANNA LISA GALVAN,DALLAS COUNTY,'057,'10,DALLAS ISD,'057905,REGULAR INSTRUCTIONAL,,'PK-05,276,No,No,Not registered,,Active 
school,WILLIAM B MILLER EL,'057905185,'481623001319,3111 BONNIE VIEW RD,DALLAS,TX,75216-3494,3111 BONNIE VIEW RD,DALLAS,TX,75216-3494,(972) 502-8700,(972) 502-8701,NH1074@dallasisd.org,www.dallasisd.org/miller,NIKKI L HUDSON,DALLAS COUNTY,'057,'10,DALLAS ISD,'057905,REGULAR INSTRUCTIONAL,,'PK-05,290,No,No,Not registered,,Active 
school,TRINITY HEIGHTS GIFTED AND TALENTED SCHOOL,'057905186,'481623001341,1515 LYNN HAVEN AVE,DALLAS,TX,75216-1323,1515 LYNN HAVEN AVE,DALLAS,TX,75216-1323,(972) 925-7500,(972) 925-7501,LATOWILLIAMS@dallasisd.org,www.dallasisd.org/mills,MARISA B SAENZ,DALLAS COUNTY,'057,'10,DALLAS ISD,'057905,REGULAR INSTRUCTIONAL,,'EE KG-06,279,No,No,Not registered,,Active 
school,NANCY MOSELEY EL,'057905187,'481623001320,10400 RYLIE RD,DALLAS,TX,75217-8241,10400 RYLIE RD,DALLAS,TX,75217-8241,(972) 749-6700,(972) 749-6701,RBernal@dallasisd.org,www.dallasisd.org/moseley,CARMEN H DERRICK,DALLAS COUNTY,'057,'10,DALLAS ISD,'057905,REGULAR INSTRUCTIONAL,,'EE-05,725,No,No,Not registered,,Active 
school,MOUNT AUBURN STEAM ACADEMY,'057905188,'481623001321,6012 E GRAND AVE,DALLAS,TX,75223-1423,6012 E GRAND AVE,DALLAS,TX,75223-1423,(972) 749-8500,(972) 749-8501,MICHHILL@dallasisd.org,www.dallasisd.org/mountauburn,JANIE ORTEGA,DALLAS COUNTY,'057,'10,DALLAS ISD,'057905,REGULAR INSTRUCTIONAL,,'EE-05,549,No,No,Not registered,,Active 
school,CLARA OLIVER EL,'057905189,'481623001235,4010 IDAHO AVE,DALLAS,TX,75216-6148,4010 IDAHO AVE,DALLAS,TX,75216-6148,(972) 749-3400,(972) 749-3401,CFREEMAN@dallasisd.org,www.dallasisd.org/oliver,CHERYL L FREEMAN,DALLAS COUNTY,'057,'10,DALLAS ISD,'057905,REGULAR INSTRUCTIONAL,,'PK-05,262,No,No,Not registered,,Active 
school,GEORGE PEABODY EL,'057905190,'481623001262,3101 RAYDELL PL,DALLAS,TX,75211-5128,3101 RAYDELL PL,DALLAS,TX,75211-5128,(972) 794-5200,(972) 794-5201,SROGERSHALL@dallasisd.org,www.dallasisd.org/peabody,SHERRI LYNN ROGERS-HALL,DALLAS COUNTY,'057,'10,DALLAS ISD,'057905,REGULAR INSTRUCTIONAL,,'PK-06,484,No,No,Not registered,,Active 
school,ELISHA M PEASE EL,'057905191,'481623001327,2914 CUMMINGS ST,DALLAS,TX,75216-7235,2914 CUMMINGS ST,DALLAS,TX,75216-7235,(214) 932-3800,(214) 932-3801,SDash@dallasisd.org,www.dallasisd.org/pease,SHARRI C ZACHARY,DALLAS COUNTY,'057,'10,DALLAS ISD,'057905,REGULAR INSTRUCTIONAL,,'EE-05,480,No,No,Not registered,,Active 
school,JOHN F PEELER EL,'057905192,'481623001328,810 S LLEWELLYN AVE,DALLAS,TX,75208-6312,810 S LLEWELLYN AVE,DALLAS,TX,75208-6312,(972) 502-8300,(972) 502-8301,sovillarreal@dallasisd.org,www.dallasisd.org/peeler,SOFIA VILLARREAL,DALLAS COUNTY,'057,'10,DALLAS ISD,'057905,REGULAR INSTRUCTIONAL,,'PK-05,275,No,No,Not registered,,Active 
school,JOHN J PERSHING EL,'057905193,'481623001329,5715 MEADERS LN,DALLAS,TX,75229-6657,5715 MEADERS LN,DALLAS,TX,75230-6657,(972) 794-8600,(972) 794-8601,marhernandez@dallasisd.org,www.dallasisd.org/pershing,MARGARITA HERNANDEZ,DALLAS COUNTY,'057,'10,DALLAS ISD,'057905,REGULAR INSTRUCTIONAL,,'EE-05,460,No,No,Not registered,,Active 
school,K B POLK CENTER FOR ACADEMICALLY TALENTED & GIFTED,'057905194,'481623001332,6911 VICTORIA AVE,DALLAS,TX,75209-3640,6911 VICTORIA AVE,DALLAS,TX,75209-3640,(972) 794-8900,(972) 794-8901,MROTHERMUND@dallasisd.org,www.dallasisd.org/polk,KOURTNEI BILLUPS,DALLAS COUNTY,'057,'10,DALLAS ISD,'057905,REGULAR INSTRUCTIONAL,,'EE-05,422,Yes,No,Not registered,,Active 
school,PRESTON HOLLOW EL,'057905195,'481623001333,6423 WALNUT HILL LN,DALLAS,TX,75230-5118,6423 WALNUT HILL LN,DALLAS,TX,75230-5118,(972) 794-8500,(972) 794-8501,TBRANDT@dallasisd.org,www.dallasisd.org/prestonhollow,VINCENT D GARCIA,DALLAS COUNTY,'057,'10,DALLAS ISD,'057905,REGULAR INSTRUCTIONAL,,'PK-05,429,No,No,Not registered,,Active 
school,JOHN H REAGAN EL,'057905197,'481623001335,201 N ADAMS AVE,DALLAS,TX,75208-4624,201 N ADAMS AVE,DALLAS,TX,75208-4624,(972) 502-8200,(972) 502-8201,RuGarza@dallasisd.org,www.dallasisd.org/reagan,RUTH ROMAN,DALLAS COUNTY,'057,'10,DALLAS ISD,'057905,REGULAR INSTRUCTIONAL,,'PK-05,309,No,No,Not registered,,Active 
school,MARTHA TURNER REILLY EL,'057905198,'481623001336,11230 LIPPITT AVE,DALLAS,TX,75218-1952,11230 LIPPITT AVE,DALLAS,TX,75218-1952,(972) 749-7800,(972) 749-7801,marijackson@dallasisd.org,www.dallasisd.org/reilly,MARION L JACKSON,DALLAS COUNTY,'057,'10,DALLAS ISD,'057905,REGULAR INSTRUCTIONAL,,'PK-05,556,No,No,Not registered,,Active 
school,REINHARDT EL,'057905199,'481623001337,10122 LOSA DR,DALLAS,TX,75218-3123,10122 LOSA DR,DALLAS,TX,75218-3123,(972) 749-7900,(972) 749-7901,pmontgom@dallasisd.org,www.dallasisd.org/reinhardt,PHOEBE L MONTGOMERY,DALLAS COUNTY,'057,'10,DALLAS ISD,'057905,REGULAR INSTRUCTIONAL,,'PK-05,505,No,No,Not registered,,Active 
school,JOSEPH J RHOADS LEARNING CENTER,'057905200,'481623001338,4401 N 2ND AVE,DALLAS,TX,75210-2712,4401 N 2ND AVE,DALLAS,TX,75210-2712,(972) 749-1000,(972) 749-1001,BRansom@dallasisd.org,www.dallasisd.org/rhoads,CHAUNDRA MACKLIN,DALLAS COUNTY,'057,'10,DALLAS ISD,'057905,REGULAR INSTRUCTIONAL,,'PK-05,622,No,No,Not registered,,Active 
school,CHARLES RICE LEARNING CENTER,'057905201,'481623001339,2425 PINE ST,DALLAS,TX,75215-4046,2425 PINE ST,DALLAS,TX,75215-4046,(972) 749-1100,(972) 749-1101,agarrett@dallasisd.org,www.dallasisd.org/rice,JENNIFER L ATKINS,DALLAS COUNTY,'057,'10,DALLAS ISD,'057905,REGULAR INSTRUCTIONAL,,'EE-05,538,No,No,Not registered,,Active 
school,ORAN M ROBERTS EL,'057905202,'481623001340,4919 GRAND AVE,DALLAS,TX,75223,4919 GRAND AVE,DALLAS,TX,75223,(972) 749-8700,(972) 749-8701,epadrocolon@dallasisd.org,www.dallasisd.org/oranroberts,KIMBERLY L BOSWELL-SEYMORE,DALLAS COUNTY,'057,'10,DALLAS ISD,'057905,REGULAR INSTRUCTIONAL,,'PK-05,511,No,No,Not registered,,Active 
school,DAN D ROGERS EL,'057905203,'481623001342,5314 ABRAMS RD,DALLAS,TX,75214-2001,5314 ABRAMS RD,DALLAS,TX,75214-2001,(972) 794-8800,(972) 794-8801,llovato@dallasisd.org,www.dallasisd.org/rogers,LISA M LOVATO,DALLAS COUNTY,'057,'10,DALLAS ISD,'057905,REGULAR INSTRUCTIONAL,,'PK-05,502,No,No,Not registered,,Active 
school,ROSEMONT LOWER - CHRIS V SEMOS BUILDING,'057905204,'481623001344,1919 STEVENS FOREST DR,DALLAS,TX,75208-3539,1919 STEVENS FOREST DR,DALLAS,TX,75208-3539,(972) 749-5000,(972) 749-5001,RMoon@dallasisd.org,www.dallasisd.org/domain/1962,MARCO A BARKER,DALLAS COUNTY,'057,'10,DALLAS ISD,'057905,REGULAR INSTRUCTIONAL,,'EE-05,968,No,No,Not registered,,Active 
school,CLINTON P RUSSELL EL,'057905205,'481623001236,3031 S BECKLEY AVE,DALLAS,TX,75224-3501,3031 S BECKLEY AVE,DALLAS,TX,75224-3501,(972) 925-8300,(972) 925-8301,MaBarker@dallasisd.org,www.dallasisd.org/russell,GERALD B BENNETT,DALLAS COUNTY,'057,'10,DALLAS ISD,'057905,REGULAR INSTRUCTIONAL,,'PK-05,647,No,No,Not registered,449175,Active 
school,ALEX SANGER PREPARATORY SCHOOL,'057905206,'481623001350,8410 SAN LEANDRO DR,DALLAS,TX,75218-4319,8410 SAN LEANDRO DR,DALLAS,TX,75218-4319,(972) 749-7600,(972) 749-7601,hmartinez@dallasisd.org,www.dallasisd.org/sanger,HECTOR MARTINEZ,DALLAS COUNTY,'057,'10,DALLAS ISD,'057905,REGULAR INSTRUCTIONAL,,'PK-08,735,No,No,Not registered,,Active 
school,SAN JACINTO EL,'057905207,'481623001349,7900 HUME DR,DALLAS,TX,75227-6850,7900 HUME DR,DALLAS,TX,75227-6850,(972) 749-4200,(972) 749-4201,CESANCHEZ@dallasisd.org,www.dallasisd.org/sanjacinto,CELIA SANCHEZ,DALLAS COUNTY,'057,'10,DALLAS ISD,'057905,REGULAR INSTRUCTIONAL,,'PK-05,461,No,No,Not registered,,Active 
school,SEAGOVILLE EL,'057905208,'481623001351,304 N KAUFMAN ST,SEAGOVILLE,TX,75159-3742,304 N KAUFMAN ST,SEAGOVILLE,TX,75159-3742,(972) 892-7900,(972) 892-7901,KAllen@dallasisd.org,www.dallasisd.org/seagovillees,KATRINA M GIBSON,DALLAS COUNTY,'057,'10,DALLAS ISD,'057905,REGULAR INSTRUCTIONAL,,'EE-05,700,No,No,Not registered,,Active 
school,ASCHER SILBERSTEIN EL,'057905209,'481623001356,5940 HOLLIS AVE,DALLAS,TX,75227-6311,5940 HOLLIS AVE,DALLAS,TX,75227-6311,(972) 794-1900,(972) 794-1901,RHeffernan@dallasisd.org,www.dallasisd.org/silberstein,RICHARD F HEFFERNAN,DALLAS COUNTY,'057,'10,DALLAS ISD,'057905,REGULAR INSTRUCTIONAL,,'PK-05,648,No,No,Not registered,,Active 
school,LESLIE A STEMMONS EL,'057905210,'481623001361,2727 KNOXVILLE ST,DALLAS,TX,75211-7652,2727 KNOXVILLE ST,DALLAS,TX,75211-7652,(972) 794-4900,(972) 794-4901,arzuniga@dallasisd.org,www.dallasisd.org/stemmons,EFRAIN TOVAR,DALLAS COUNTY,'057,'10,DALLAS ISD,'057905,REGULAR INSTRUCTIONAL,,'PK-05,679,No,No,Not registered,,Active 
school,STEVENS PARK EL,'057905211,'481623001362,2615 W COLORADO BLVD,DALLAS,TX,75211-1707,2615 W COLORADO BLVD,DALLAS,TX,75211-1707,(972) 794-4200,(972) 794-4201,CKOELLING@dallasisd.org,www.dallasisd.org/stevenspark,ROBERTO C GONZALEZ,DALLAS COUNTY,'057,'10,DALLAS ISD,'057905,REGULAR INSTRUCTIONAL,,'PK-06,704,No,No,Not registered,,Active 
school,HARRY STONE MONTESSORI ACADEMY,'057905212,'481623000465,4747 VETERANS DR,DALLAS,TX,75216-7103,4747 VETERANS DR,DALLAS,TX,75216-7103,(972) 794-3400,(972) 794-3401,NiJones@dallasisd.org,www.dallasisd.org/Page/2464,NIKI JONES,DALLAS COUNTY,'057,'10,DALLAS ISD,'057905,REGULAR INSTRUCTIONAL,,'PK-08,676,Yes,No,Not registered,449027,Active 
school,T G TERRY EL,'057905213,'481623001368,6661 GREENSPAN DR,DALLAS,TX,75232-3605,6661 GREENSPAN DR,DALLAS,TX,75232-3605,(972) 749-3200,(972) 749-3201,AlBradley@dallasisd.org,www.dallasisd.org/terry,ALICIA N BRADLEY,DALLAS COUNTY,'057,'10,DALLAS ISD,'057905,REGULAR INSTRUCTIONAL,,'PK-05,346,No,No,Not registered,,Active 
school,R L THORNTON EL,'057905215,'481623001371,6011 OLD OX RD,DALLAS,TX,75241-2729,6011 OLD OX RD,DALLAS,TX,75241-2729,(972) 794-8000,(972) 794-8001,CHSTEPHENS@dallasisd.org,www.dallasisd.org/rlthornton,CHRISTOFOR T STEPHENS,DALLAS COUNTY,'057,'10,DALLAS ISD,'057905,REGULAR INSTRUCTIONAL,,'EE-05,250,No,No,Not registered,,Active 
school,EDWARD TITCHE EL,'057905216,'481623001372,9560 HIGHFIELD DR,DALLAS,TX,75227-8149,9560 HIGHFIELD DR,DALLAS,TX,75227-8149,(972) 794-2100,(972) 794-2101,DSTOVALL@dallasisd.org,www.dallasisd.org/titche,DAMIEN T STOVALL,DALLAS COUNTY,'057,'10,DALLAS ISD,'057905,REGULAR INSTRUCTIONAL,,'PK-05,774,No,No,Not registered,,Active 
school,WILLIAM B TRAVIS VANGUARD ACAD OF ACADEMICALLY TAG,'057905217,'481623001374,3001 MCKINNEY AVE,DALLAS,TX,75204-2414,3001 MCKINNEY AVE,DALLAS,TX,75204-2414,(972) 794-7500,(972) 794-7501,maribsmith@dallasisd.org,www.dallasisd.org/Page/2480,TOM BRANDT,DALLAS COUNTY,'057,'10,DALLAS ISD,'057905,REGULAR INSTRUCTIONAL,,'04-08,521,Yes,No,Not registered,449052,Active 
school,GEORGE W TRUETT EL,'057905218,'481623001263,1811 GROSS RD,DALLAS,TX,75228-4765,1811 GROSS RD,DALLAS,TX,75228-4765,(972) 749-8000,(972) 749-8001,TEEVANS@dallasisd.org,www.dallasisd.org/truett,TERRE LINN EVANS,DALLAS COUNTY,'057,'10,DALLAS ISD,'057905,REGULAR INSTRUCTIONAL,,'EE-05,1070,No,No,Not registered,,Active 
school,ADELLE TURNER EL,'057905219,'481623001375,5505 S POLK ST,DALLAS,TX,75232-2062,5505 S POLK ST,DALLAS,TX,75232-2062,(972) 794-6300,(972) 794-6301,mnickson@dallasisd.org,www.dallasisd.org/turner,MICHAEL D NICKSON,DALLAS COUNTY,'057,'10,DALLAS ISD,'057905,REGULAR INSTRUCTIONAL,,'PK-05,268,No,No,Not registered,,Active 
school,MARK TWAIN LEADERSHIP VANGUARD,'057905220,'481623001376,724 GREEN COVE LN,DALLAS,TX,75232-1342,724 GREEN COVE LN,DALLAS,TX,75232-1342,(972) 749-3000,(972) 749-3001,DRoss@dallasisd.org,www.dallasisd.org/twain,DERRICK D ROSS,DALLAS COUNTY,'057,'10,DALLAS ISD,'057905,REGULAR INSTRUCTIONAL,,'PK-05,217,Yes,No,Not registered,,Active 
school,URBAN PARK EL,'057905222,'481623001378,6901 MILITARY PKWY,DALLAS,TX,75227-3712,6901 MILITARY PKWY,DALLAS,TX,75227-3712,(972) 794-1100,(972) 794-1101,LFALCON@DALLASISD.ORG,www.dallasisd.org/urbanpark,LISA A FALCON,DALLAS COUNTY,'057,'10,DALLAS ISD,'057905,REGULAR INSTRUCTIONAL,,'PK-05,566,No,No,Not registered,,Active 
school,WALNUT HILL EL,'057905224,'481623001380,10115 MIDWAY RD,DALLAS,TX,75229-6230,10115 MIDWAY RD,DALLAS,TX,75229-6230,(972) 502-7800,(972) 502-7801,RMCLAURIN@dallasisd.org,www.dallasisd.org/walnuthill,PHILLIP POTTER,DALLAS COUNTY,'057,'10,DALLAS ISD,'057905,REGULAR INSTRUCTIONAL,,'EE-05,397,No,No,Not registered,,Active 
school,DANIEL WEBSTER EL,'057905225,'481623001381,3815 S FRANKLIN ST,DALLAS,TX,75233-3309,3815 S FRANKLIN ST,DALLAS,TX,75233-3309,(972) 794-6100,(972) 794-6101,CLALEXANDER@dallasisd.org,www.dallasisd.org/webster,CLEMENT D ALEXANDER,DALLAS COUNTY,'057,'10,DALLAS ISD,'057905,REGULAR INSTRUCTIONAL,,'PK-05,390,No,No,Not registered,,Active 
school,MARTIN WEISS EL,'057905226,'481623001382,8601 WILLOUGHBY BLVD,DALLAS,TX,75232-5408,8601 WILLOUGHBY BLVD,DALLAS,TX,75232-5408,(972) 749-4000,(972) 749-4001,lmerritt@dallasisd.org,www.dallasisd.org/weiss,LAKISHA R MERRITT,DALLAS COUNTY,'057,'10,DALLAS ISD,'057905,REGULAR INSTRUCTIONAL,,'EE-05,526,No,No,Not registered,,Active 
school,WINNETKA EL,'057905229,'481623001388,1151 S EDGEFIELD AVE,DALLAS,TX,75208-7099,1151 S EDGEFIELD AVE,DALLAS,TX,75208-7099,(972) 749-5100,(972) 749-5101,lflores@dallasisd.org,www.dallasisd.org/winnetka,LOURDES GARDUNO,DALLAS COUNTY,'057,'10,DALLAS ISD,'057905,REGULAR INSTRUCTIONAL,,'PK-05,841,No,No,Not registered,,Active 
school,HARRY C WITHERS EL,'057905230,'481623021021,3959 NORTHAVEN RD,DALLAS,TX,75229-2758,3959 NORTHAVEN RD,DALLAS,TX,75229-2758,(972) 794-5000,(972) 794-5001,WRohne@dallasisd.org,www.dallasisd.org/withers,WENDY MILLER,DALLAS COUNTY,'057,'10,DALLAS ISD,'057905,REGULAR INSTRUCTIONAL,,'PK-05,477,No,No,Not registered,,Active 
school,EDNA ROWE EL,'057905232,'481623001345,4918 HOVENKAMP DR,DALLAS,TX,75227-2819,4918 HOVENKAMP DR,DALLAS,TX,75227-2819,(972) 749-8800,(972) 749-8801,cmcfarland@dallasisd.org,www.dallasisd.org/rowe,SHARON CROCKETT-ALEXANDER,DALLAS COUNTY,'057,'10,DALLAS ISD,'057905,REGULAR INSTRUCTIONAL,,'PK-05,418,No,No,Not registered,,Active 
school,NATHAN ADAMS EL,'057905233,'481623006392,12600 WELCH RD,DALLAS,TX,75244-6950,12600 WELCH RD,DALLAS,TX,75244-6950,(972) 794-2600,(972) 794-2601,ALuna@dallasisd.org,www.dallasisd.org/nathanadams,ADRIAN LUNA,DALLAS COUNTY,'057,'10,DALLAS ISD,'057905,REGULAR INSTRUCTIONAL,,'PK-05,435,No,No,Not registered,,Active 
school,HENRY B GONZALEZ PERSONALIZED LEARNING ACADEMY,'057905234,'481623010570,6610 LAKE JUNE RD,DALLAS,TX,75217,6610 LAKE JUNE RD,DALLAS,TX,75217,(972) 502-3300,(972) 502-3301,rguajardo@dallasisd.org,www.dallasisd.org/gonzalez,REYMUNDO CERVANTES GUAJARDO,DALLAS COUNTY,'057,'10,DALLAS ISD,'057905,REGULAR INSTRUCTIONAL,,'EE-05,625,No,No,Not registered,,Active 
school,BIRDIE ALEXANDER EL,'057905235,'481623001207,1830 GOLDWOOD DR,DALLAS,TX,75232-3716,1830 GOLDWOOD DR,DALLAS,TX,75232-3716,(972) 749-3100,(972) 749-3101,VaKendrick@dallasisd.org,www.dallasisd.org/alexander,VALARIE J KENDRICK,DALLAS COUNTY,'057,'10,DALLAS ISD,'057905,REGULAR INSTRUCTIONAL,,'EE-05,341,No,No,Not registered,,Active 
school,NANCY J COCHRAN EL,'057905236,'481623001237,6000 KEENELAND PKWY,DALLAS,TX,75211-6930,6000 KEENELAND PKWY,DALLAS,TX,75211-6930,(972) 794-4600,(972) 794-4601,MValadez@dallasisd.org,www.dallasisd.org/cochran,JAMILA STEEN,DALLAS COUNTY,'057,'10,DALLAS ISD,'057905,REGULAR INSTRUCTIONAL,,'EE-05,479,No,No,Not registered,,Active 
school,JOHN W RUNYON EL,'057905237,'481623001346,10750 CRADLEROCK DR,DALLAS,TX,75217-3220,10750 CRADLEROCK DR,DALLAS,TX,75217-3220,(972) 749-6100,(972) 749-6101,shewilliams@dallasisd.org,www.dallasisd.org/runyon,SHERRY L WILLIAMS,DALLAS COUNTY,'057,'10,DALLAS ISD,'057905,REGULAR INSTRUCTIONAL,,'EE-05,553,No,No,Not registered,,Active 
school,ARTURO SALAZAR EL,'057905239,'481623010571,1120 S RAVINIA DR,DALLAS,TX,75211,1120 S RAVINIA DR,DALLAS,TX,75211,(972) 502-1800,(972) 502-1801,nwatkins@dallasisd.org,www.dallasisd.org/salazar,NICOLE WATKINS BIXBY,DALLAS COUNTY,'057,'10,DALLAS ISD,'057905,REGULAR INSTRUCTIONAL,,'EE-05,512,No,No,Not registered,,Active 
school,FRANK GUZICK EL,'057905240,'481623010572,5000 BERRIDGE LN,DALLAS,TX,75227,5000 BERRIDGE LN,DALLAS,TX,75227,(972) 502-3900,(972) 502-3901,AANDRUS@dallasisd.org,www.dallasisd.org/guzick,ADREANA DAVIS,DALLAS COUNTY,'057,'10,DALLAS ISD,'057905,REGULAR INSTRUCTIONAL,,'EE-05,694,No,No,Not registered,,Active 
school,ELEMENTARY' DISCIPLINARY ALTERNATIVE EDUCATION PRG,'057905241,'481623009196,3313 S BECKLEY AVE BLDG E,DALLAS,TX,75224,3313 S BECKLEY AVE BLDG E,DALLAS,TX,75224,(972) 925-7000,(214) 376-5317,marbrooks@dallasisd.org,,MARLON L BROOKS,DALLAS COUNTY,'057,'10,DALLAS ISD,'057905,DAEP INSTRUCTIONAL,,'KG-05,8,No,No,Not registered,,Active 
school,SEAGOVILLE NORTH EL,'057905244,'481623012792,1906 SEAGOVILLE RD,DALLAS,TX,75159,1906 SEAGOVILLE RD,DALLAS,TX,75159,(972) 794-7800,(972) 794-7801,nmartinez2@dallasisd.org,www.dallasisd.org/seagovillenorth,ROCIO A GARDEA,DALLAS COUNTY,'057,'10,DALLAS ISD,'057905,REGULAR INSTRUCTIONAL,,'PK-05,778,No,No,Not registered,,Active 
school,ADELFA BOTELLO CALLEJO EL,'057905247,'481623012890,7817 MILITARY PKWY,DALLAS,TX,75227,7817 MILITARY PKWY,DALLAS,TX,75227,(972) 749-5700,(972) 749-5701,spfernandez@dallasisd.org,www.dallasisd.org/callejo,SANDRA FERNANDEZ,DALLAS COUNTY,'057,'10,DALLAS ISD,'057905,REGULAR INSTRUCTIONAL,,'EE-05,596,No,No,Not registered,,Active 
school,WHITNEY M YOUNG JR EL,'057905250,'481623001390,4601 VETERANS DR,DALLAS,TX,75216-7101,4601 VETERANS DR,DALLAS,TX,75216-7101,(972) 749-2000,(972) 749-2001,CMims@dallasisd.org,www.dallasisd.org/young,SHABRANDA L MATHIS,DALLAS COUNTY,'057,'10,DALLAS ISD,'057905,REGULAR INSTRUCTIONAL,,'PK-05,408,No,No,Not registered,,Active 
school,LORENZO DE ZAVALA EL,'057905260,'481623005446,3214 N WINNETKA AVE,DALLAS,TX,75212-3930,3214 N WINNETKA AVE,DALLAS,TX,75212-3930,(972) 892-6400,(972) 892-6401,lm8905@dallasisd.org,www.dallasisd.org/dezavala,MELISSA GONZALEZ,DALLAS COUNTY,'057,'10,DALLAS ISD,'057905,REGULAR INSTRUCTIONAL,,'EE-06,480,No,No,Not registered,,Active 
school,J P STARKS EL,'057905263,'481623006242,3033 TIPS BLVD,DALLAS,TX,75216-3563,3033 TIPS BLVD,DALLAS,TX,75216-3563,(972) 502-8800,(972) 502-8801,lhoward@dallasisd.org,www.dallasisd.org/starks,EVELYN LYNETTE HOWARD,DALLAS COUNTY,'057,'10,DALLAS ISD,'057905,REGULAR INSTRUCTIONAL,,'PK-07,305,Yes,No,Not registered,,Active 
school,RONALD E MCNAIR EL,'057905264,'481623006393,3150 BAINBRIDGE DR,DALLAS,TX,75237-3606,3150 BAINBRIDGE DR,DALLAS,TX,75237-3606,(972) 794-6200,(972) 794-6201,ahollis@dallasisd.org,www.dallasisd.org/mcnair,ARISS J RIDER,DALLAS COUNTY,'057,'10,DALLAS ISD,'057905,REGULAR INSTRUCTIONAL,,'PK-05,561,No,No,Not registered,,Active 
school,ELADIO R MARTINEZ LEARNING CENTER,'057905265,'481623021022,4500 BERNAL DR,DALLAS,TX,75212-2149,4500 BERNAL DR,DALLAS,TX,75212-2149,(972) 794-6900,(972) 794-6901,JMurillo@dallasisd.org,www.dallasisd.org/martinez,JOSEFINA MURILLO,DALLAS COUNTY,'057,'10,DALLAS ISD,'057905,REGULAR INSTRUCTIONAL,,'EE-06,758,No,No,Not registered,,Active 
school,FREDERICK DOUGLASS EL,'057905266,'481623006682,226 N JIM MILLER RD,DALLAS,TX,75227-5803,226N JIM MILLER RD,DALLAS,TX,75227-5803,(972) 794-1400,(972) 794-1401,magibson@dallasisd.org,www.dallasisd.org/douglass,MARQUETTA L MASTERS,DALLAS COUNTY,'057,'10,DALLAS ISD,'057905,REGULAR INSTRUCTIONAL,,'EE-05,476,No,No,Not registered,,Active 
school,EDUARDO MATA MONTESSORI SCHOOL,'057905270,'481623007569,7420 LA VISTA,DALLAS,TX,75204-9999,7420 LA VISTA,DALLAS,TX,75204-9999,(972) 749-7500,(972) 749-7501,ToWilliams@dallasisd.org,www.dallasisd.org/mata,TOMEKA MIDDLETON WILLIAMS,DALLAS COUNTY,'057,'10,DALLAS ISD,'057905,REGULAR INSTRUCTIONAL,,'PK-07,645,No,No,Not registered,,Active 
school,JULIAN T SALDIVAR EL,'057905271,'481623007249,9510 BROCKBANK DR,DALLAS,TX,75220-6801,9510 BROCKBANK DR,DALLAS,TX,75220-6801,(972) 794-2000,(972) 794-2001,cmacklin@dallasisd.org,www.dallasisd.org/saldivar,EDGAR JARAMILLO,DALLAS COUNTY,'057,'10,DALLAS ISD,'057905,REGULAR INSTRUCTIONAL,,'PK-05,845,No,No,Not registered,,Active 
school,MARIA MORENO EL,'057905272,'481623007250,2115 HAMPTON RD,DALLAS,TX,75224,2115 HAMPTON RD,DALLAS,TX,75224,(972) 502-3100,(972) 502-3101,TBROOKS@dallasisd.org,www.dallasisd.org/moreno,TAMMIE D BROOKS,DALLAS COUNTY,'057,'10,DALLAS ISD,'057905,REGULAR INSTRUCTIONAL,,'EE-05,393,No,No,Not registered,,Active 
school,PLEASANT GROVE EL,'057905273,'481623007251,1614 N ST AUGUSTINE,DALLAS,TX,75217-2654,1614 N ST AUGUSTINE,DALLAS,TX,75217-2654,(972) 892-5000,(972) 892-5001,ATAVERA@dallasisd.org,www.dallasisd.org/pleasantgrove,ANABEL RUIZ,DALLAS COUNTY,'057,'10,DALLAS ISD,'057905,REGULAR INSTRUCTIONAL,,'PK-05,507,No,No,Not registered,,Active 
school,MARY MCLEOD BETHUNE EL,'057905274,'481623007252,1665 DUNCANVILLE RD,DALLAS,TX,75211-6530,1665 DUNCANVILLE RD,DALLAS,TX,75211-6530,(972) 502-1300,(972) 502-1301,TeHernandez@dallasisd.org,www.dallasisd.org/bethune,TERESA HERNANDEZ,DALLAS COUNTY,'057,'10,DALLAS ISD,'057905,REGULAR INSTRUCTIONAL,,'PK-05,664,No,No,Not registered,,Active 
school,LOUISE WOLFF KAHN EL,'057905275,'481623007570,610 N FRANKLIN,DALLAS,TX,75211-2221,610 N FRANKLIN,DALLAS,TX,75211-2221,(972) 502-1400,(972) 502-1401,momarquez@dallasisd.org,www.dallasisd.org/kahn,MONICA MARQUEZ,DALLAS COUNTY,'057,'10,DALLAS ISD,'057905,REGULAR INSTRUCTIONAL,,'PK-06,630,No,No,Not registered,,Active 
school,GILBERT CUELLAR SR EL,'057905276,'481623007253,337 PLEASANT VISTA DR,DALLAS,TX,75217-7959,337 PLEASANT VISTA DR,DALLAS,TX,75217-7959,(972) 749-6400,(972) 749-6401,lorussell@dallasisd.org,www.dallasisd.org/cuellar,LONNIE RUSSELL,DALLAS COUNTY,'057,'10,DALLAS ISD,'057905,REGULAR INSTRUCTIONAL,,'EE-05,700,No,No,Not registered,,Active 
school,THOMAS TOLBERT EL,'057905277,'481623007254,4000 BLUE RDG RD,DALLAS,TX,75233-2438,4000 BLUE RDG RD,DALLAS,TX,75233-2438,(972) 794-5900,(972) 794-5901,laksmith@dallasisd.org,www.dallasisd.org/tolbert,LAKEISHA L SMITH,DALLAS COUNTY,'057,'10,DALLAS ISD,'057905,REGULAR INSTRUCTIONAL,,'PK-05,459,No,No,Not registered,,Active 
school,LEONIDES GONZALEZ CIGARROA MD EL,'057905278,'481623010573,9990 WEBB CHAPEL RD,DALLAS,TX,75220,9990 WEBB CHAPEL RD,DALLAS,TX,75220,(972) 502-2900,(972) 502-2901,dburak@dallasisd.org,www.dallasisd.org/cigarroa,DOUGLAS BURAK,DALLAS COUNTY,'057,'10,DALLAS ISD,'057905,REGULAR INSTRUCTIONAL,,'PK-05,519,No,No,Not registered,,Active 
school,JERRY R JUNKINS EL,'057905279,'481623010574,2808 RUNNING DUKE DR,CARROLLTON,TX,75204,2808 RUNNING DUKE DR,CARROLLTON,TX,75204,(972) 502-2400,(972) 502-2401,JESANTILLAN@dallasisd.org,www.dallasisd.org/junkins,JENNIFER S HERNANDEZ,DALLAS COUNTY,'057,'10,DALLAS ISD,'057905,REGULAR INSTRUCTIONAL,,'PK-05,622,No,No,Not registered,,Active 
school,ANNE FRANK EL,'057905280,'481623007571,5201 CELESTIAL RD,DALLAS,TX,75204-9999,5201 CELESTIAL RD,DALLAS,TX,75204-9999,(972) 502-5900,(972) 502-5901,bmullins@dallasisd.org,www.dallasisd.org/frank,BEVERLY MULLINS FORD,DALLAS COUNTY,'057,'10,DALLAS ISD,'057905,REGULAR INSTRUCTIONAL,,'EE-05,1178,No,No,Not registered,,Active 
school,CESAR CHAVEZ LEARNING CENTER,'057905281,'481623007572,1710 N CARROLL,DALLAS,TX,75204-4402,1710 N CARROLL,DALLAS,TX,75204-4402,(972) 925-1000,(972) 925-1001,vingarcia@dallasisd.org,www.dallasisd.org/chavez,SHERYL M WILSON,DALLAS COUNTY,'057,'10,DALLAS ISD,'057905,REGULAR INSTRUCTIONAL,,'PK-05,680,No,No,Not registered,,Active 
school,ESPERANZA MEDRANO EL,'057905283,'481623008184,2221 LUCAS DR,DALLAS,TX,75219,2221 LUCAS DR,DALLAS,TX,75219,(972) 794-3300,(972) 794-3301,mmargomalo@dallasisd.org,www.dallasisd.org/hopemedrano,MARIELA MAGRO MALO,DALLAS COUNTY,'057,'10,DALLAS ISD,'057905,REGULAR INSTRUCTIONAL,,'PK-05,363,No,No,Not registered,,Active 
school,HIGHLAND MEADOWS EL,'057905284,'481623010575,8939 WHITEWING LN,DALLAS,TX,75238,8939 WHITEWING LN,DALLAS,TX,75238,(972) 502-5200,(972) 502-5201,JulDavis@dallasisd.org,www.dallasisd.org/hmeadows,JOANNA BAHENA,DALLAS COUNTY,'057,'10,DALLAS ISD,'057905,REGULAR INSTRUCTIONAL,,'EE-05,772,No,No,Not registered,,Active 
school,N W HARLLEE EARLY CHILDHOOD CENTER,'057905285,'481623013324,1216 E EIGHTH ST,DALLAS,TX,75203,1216 E EIGHTH ST,DALLAS,TX,75203,(972) 925-6500,(972) 925-6501,OBrown@dallasisd.org,,ROBYN PINILLA,DALLAS COUNTY,'057,'10,DALLAS ISD,'057905,REGULAR INSTRUCTIONAL,,'EE-02,266,No,No,Not registered,,Active 
school,LEE A MCSHAN JR EL,'057905286,'481623010576,8307 MEADOW,DALLAS,TX,75231,8307 MEADOW,DALLAS,TX,75231,(972) 502-6052,(972) 502-3801,dacarson@dallasisd.org,www.dallasisd.org/mcshan,CECELIA CRINER,DALLAS COUNTY,'057,'10,DALLAS ISD,'057905,REGULAR INSTRUCTIONAL,,'PK-05,683,No,No,Not registered,,Active 
school,CELESTINO MAURICIO SOTO JR EL,'057905287,'481623010577,4510 W JEFFERSON BLVD,DALLAS,TX,75211,4510 W JEFFERSON BLVD,DALLAS,TX,75211,(972) 502-5100,(972) 502-5101,PKWIATKOWSKI@dallasisd.org,www.dallasisd.org/soto,JANIE ORTEGA,DALLAS COUNTY,'057,'10,DALLAS ISD,'057905,REGULAR INSTRUCTIONAL,,'PK-05,526,No,No,Not registered,,Active 
school,FELIX G BOTELLO EL,'057905289,'481623010578,225 S MARSALIS,DALLAS,TX,75203,225 S MARSALIS,DALLAS,TX,75203,(972) 502-4600,(972) 502-4601,mpuentemajia@dallasisd.org,www.dallasisd.org/botello,MARIA PUENTEMEJIA,DALLAS COUNTY,'057,'10,DALLAS ISD,'057905,REGULAR INSTRUCTIONAL,,'PK-05,538,No,No,Not registered,,Active 
school,ROY P BENAVIDEZ EL,'057905290,'481623010579,9400 N CENTRAL EXPY,DALLAS,TX,75231,9400 N CENTRAL EXPY,DALLAS,TX,75231,(972) 794-3546,(972) 794-3546,schoolunderconstruction@dallasisd.org,, ,DALLAS COUNTY,'057,'10,DALLAS ISD,'057905,REGULAR INSTRUCTIONAL,,'KG-07,0,No,No,Not registered,,Active 
school,ARLINGTON PARK EARLY CHILDHOOD CENTER,'057905300,'481623013333,5606 WAYSIDE DR BOX 16,DALLAS,TX,75235,5606 WAYSIDE DR BOX 16,DALLAS,TX,75235, , ,arodriguez@dallasisd.org,,ENRIQUE ESCOBEDO,DALLAS COUNTY,'057,'10,DALLAS ISD,'057905,REGULAR INSTRUCTIONAL,,'PK,103,No,No,Not registered,,Active 
school,WILMER-HUTCHINS EL,'057905301,'481623012474,7475 J J LEMMON RD,DALLAS,TX,75241,7475 J J LEMMON RD,DALLAS,TX,75241,(972) 925-2600,(972) 925-3601,MiGipson@dallasisd.org,www.dallasisd.org/wilmerhutchinses,SAMANTHA WHITE,DALLAS COUNTY,'057,'10,DALLAS ISD,'057905,REGULAR INSTRUCTIONAL,,'PK-05,900,No,No,Not registered,,Active 
school,CALLIER CENTER PRE-SCHOOL DEAF (0-5),'057905302,'481623008518,1966 INWOOD RD,DALLAS,TX,75235,1966 INWOOD RD,DALLAS,TX,75235,(972) 982-1036,(972) 111-1111,astein@dallasisd.org,,KAREN CLARK,DALLAS COUNTY,'057,'10,DALLAS ISD,'057905,REGULAR INSTRUCTIONAL,,'EE,71,No,No,Not registered,,Active 
school,THELMA ELIZABETH PAGE RICHARDSON EL,'057905303,'481623013038,7203 BURTON RD,DALLAS,TX,75217,7203 BURTON RD,DALLAS,TX,75217,(972) 892-8100,(972) 892-8100,cothomas@dallasisd.org,www.dallasisd.org/richardson,COURTNEY T LOY,DALLAS COUNTY,'057,'10,DALLAS ISD,'057905,REGULAR INSTRUCTIONAL,,'PK-05,630,No,No,Not registered,,Active 
school,GEORGE HERBERT WALKER BUSH EL,'057905304,'481623012472,3939 SPRING VALLEY RD,ADDISON,TX,75001,3939 SPRING VALLEY RD,ADDISON,TX,75001,(972) 925-1700,(972) 925-1701,CCROWLING@dallasisd.org,www.dallasisd.org/georgehwbush,CAROL CROWLING,DALLAS COUNTY,'057,'10,DALLAS ISD,'057905,REGULAR INSTRUCTIONAL,,'EE-05,719,No,No,Not registered,,Active 
school,EBBY HALLIDAY EL,'057905305,'481623012460,10210 TEAGARDEN,DALLAS,TX,75217,10210 TEAGARDEN,DALLAS,TX,75217,(972) 925-1800,(972) 925-1801,TaCarter@dallasisd.org,www.dallasisd.org/ebbyhalliday,TANGELA CARTER,DALLAS COUNTY,'057,'10,DALLAS ISD,'057905,REGULAR INSTRUCTIONAL,,'PK-05,690,No,No,Not registered,,Active 
school,SOLAR PREPARATORY SCHOOL FOR GIRLS AT BONHAM,'057905306,'481623013321,2617 N HENDERSON AVE,DALLAS,TX,75206,2617 N HENDERSON AVE,DALLAS,TX,75206,(972) 749-4300,(972) 749-4301,NBernardino@dallasisd.org,,NANCY A BERNARDINO,DALLAS COUNTY,'057,'10,DALLAS ISD,'057905,REGULAR INSTRUCTIONAL,,'PK-05,561,No,No,Not registered,,Active 
school,THOMPSON MONTESSORI,'057905307,'481623013548,5700 BEXAR ST,DALLAS,TX,75215,5700 BEXAR ST,DALLAS,TX,75215, , ,arodriguez@dallasisd.org,, ,DALLAS COUNTY,'057,'10,DALLAS ISD,'057905,REGULAR INSTRUCTIONAL,,'KG-05,0,No,No,Not registered,,Active 
school,TBD EARLY CHILDHOOD CENTER,'057905308,'481623013617,9400 N CENTRAL EXPY,DALLAS,TX,75231,9400 N CENTRAL EXPY,DALLAS,TX,75231,(214) 555-5555,(214) 555-5555,arodriguez@dallasisd.org,, ,DALLAS COUNTY,'057,'10,DALLAS ISD,'057905,REGULAR INSTRUCTIONAL,,'PK,0,No,No,Not registered,,Active 
school,BARACK OBAMA EL MALE LEADERSHIP ACADEMY,'057905309,'481623013555,2929 STAG RD,DALLAS,TX,75241,2929 STAG RD,DALLAS,TX,75241,(972) 749-2100,(972) 749-2101,mibland@dallasisd.org,www.dallasisd.org/obama,DAVID WELCH,DALLAS COUNTY,'057,'10,DALLAS ISD,'057905,REGULAR INSTRUCTIONAL,,'KG-05,0,No,No,Not registered,,Active 
school,WILMER TBD,'057905312,'481623013554,3700 ROSS AVE,DALLAS,TX,75204-5491,3700 ROSS AVE,DALLAS,TX,75204-5491, , ,arodriguez@dallasisd.org,, ,DALLAS COUNTY,'057,'10,DALLAS ISD,'057905,REGULAR INSTRUCTIONAL,,'09,0,No,No,Not registered,,Active 
school,TITCHE BLANTON AREA,'057905313,'481623013546,9400 N CENTRAL EXPY,DALLAS,TX,75231,9400 N CENTRAL EXPY,DALLAS,TX,75231,(972) 925-3700,(972) 999-9999,arodriguez@dallasisd.org,, ,DALLAS COUNTY,'057,'10,DALLAS ISD,'057905,REGULAR INSTRUCTIONAL,,'KG-05,0,No,No,Not registered,,Active 
school,STONE HOTCHKISS AREA,'057905316,'481623013541,9400 N CENTRAL EXPY,DALLAS,TX,75231,9400 N CENTRAL EXPY,DALLAS,TX,75231,(972) 925-3700,(972) 999-9999,arodriguez@dallasisd.org,, ,DALLAS COUNTY,'057,'10,DALLAS ISD,'057905,REGULAR INSTRUCTIONAL,,'KG-05,0,No,No,Not registered,,Active 
school,FAR NORTH DALLAS AREA,'057905317,'481623013547,9400 N CENTRAL EXPY,DALLAS,TX,75231,9400 N CENTRAL EXPY,DALLAS,TX,75231,(972) 925-3700,(972) 999-9999,arodriguez@dallasisd.org,, ,DALLAS COUNTY,'057,'10,DALLAS ISD,'057905,REGULAR INSTRUCTIONAL,,'09,0,No,No,Not registered,,Active 
school,WEST DALLAS STEM SCHOOL,'057905318,'481623013551,9400 N CENTRAL EXPY,DALLAS,TX,75231,9400 N CENTRAL EXPY,DALLAS,TX,75231,(972) 925-3700,(972) 999-9999,arodriguez@dallasisd.org,, ,DALLAS COUNTY,'057,'10,DALLAS ISD,'057905,REGULAR INSTRUCTIONAL,,'09,0,No,No,Not registered,,Active 
school,YOUNG WOMEN'S STEAM ACADEMY AT BALCH SPRINGS MIDDL,'057905352,'481623012835,710 CHEYENNE RD,BALCH SPRINGS,TX,75180,710 CHEYENNE RD,BALCH SPRINGS,TX,75180,(972) 892-5800,(972) 892-5801,gdickson@dallasisd.org,www.dallasisd.org/balchsprings,GABRELLE D DICKSON,DALLAS COUNTY,'057,'10,DALLAS ISD,'057905,REGULAR INSTRUCTIONAL,,'06-08,1228,No,No,Not registered,449442,Active 
school,ANN RICHARDS STEAM ACADEMY,'057905353,'481623012796,3831 N PRAIRIE CREEK,DALLAS,TX,75227,3831 N PRAIRIE CREEK,DALLAS,TX,75227,(972) 892-5400,(972) 892-5401,FRATAYLOR@dallasisd.org,www.dallasisd.org/annrichards,FRANCINE TAYLOR,DALLAS COUNTY,'057,'10,DALLAS ISD,'057905,REGULAR INSTRUCTIONAL,,'06-08,1336,No,No,Not registered,449443,Active 
school,KENNEDY-CURRY MIDDLE,'057905354,'481623012455,6605 SEBRING,DALLAS,TX,75241,6605 SEBRING,DALLAS,TX,75241,(972) 925-1600,(972) 925-1601,DWelch@dallasisd.org,www.dallasisd.org/Page/2616,PATRICE RUFFIN-BROWN,DALLAS COUNTY,'057,'10,DALLAS ISD,'057905,REGULAR INSTRUCTIONAL,,'06-08,734,No,No,Not registered,449440,Active 
school,ROSEMONT UPPER,'057905359,'481623012781,719 N MONTCLAIR AVE,DALLAS,TX,75208,719 N MONTCLAIR AVE,DALLAS,TX,75208,(972) 749-5000,(972) 749-5001,RMoon@dallasisd.org,www.dallasisd.org/Page/2428,MARCO A BARKER,DALLAS COUNTY,'057,'10,DALLAS ISD,'057905,REGULAR INSTRUCTIONAL,,'06-08,183,No,No,Not registered,449334,Active 
school,D A HULCY STEAM MIDDLE,'057905360,'481623013316,9339 S POLK ST,DALLAS,TX,75232,9339 S POLK ST,DALLAS,TX,75232,(214) 932-7400,(214) 932-7401,JLockwood@dallasisd.org,,JONICA CROWDER-LOCKWOOD,DALLAS COUNTY,'057,'10,DALLAS ISD,'057905,REGULAR INSTRUCTIONAL,,'06-08,519,No,No,Not registered,449019,Active 
school,DOWNTOWN MONTESSORI,'057905361,'481623013873,9400 N CENTRAL EXPY,DALLAS,TX,75231,9400 N CENTRAL EXPY,DALLAS,TX,75231,(972) 925-3700, ,tbd@dallasisd.org,, ,DALLAS COUNTY,'057,'10,DALLAS ISD,'057905,REGULAR INSTRUCTIONAL,,'PK-02,0,Yes,No,Not registered,,Active 
school,IGNITE MIDDLE,'057905362,'481623013825,2211 CADDO ST,DALLAS,TX,75204,2211 CADDO ST,DALLAS,TX,75204,(972) 925-3700,(972) 111-1111,arodriguez@dallasisd.org,,MICHAEL GAYLES,DALLAS COUNTY,'057,'10,DALLAS ISD,'057905,REGULAR INSTRUCTIONAL,,'06-07,358,No,No,Not registered,,Active 
school,SCHOOL FOR THE TALENTED & GIFTED IN PLEASANT GROVE,'057905363,'481623013856,9610 BRUTON RD,DALLAS,TX,75217,9610 BRUTON RD,DALLAS,TX,75217,(972) 925-3700,(214) 111-1111,arodriguez@dallasisd.org,,RUBY GARZA RAMIREZ,DALLAS COUNTY,'057,'10,DALLAS ISD,'057905,REGULAR INSTRUCTIONAL,,'04-07,301,No,No,Not registered,,Active 
school,WILMER-HUTCHINS H S,'057905380,'481623012551,5520 LANGDON RD,DALLAS,TX,75241,5520 LANGDON RD,DALLAS,TX,75241,(972) 925-2900,(972) 925-2901,TABARNETT@dallasisd.org,www.dallasisd.org/wilmerhutchinshs,JASEN M CAMPBELL,DALLAS COUNTY,'057,'10,DALLAS ISD,'057905,REGULAR INSTRUCTIONAL,,'09-12,966,No,No,Not registered,441887,Active 
school,BARACK OBAMA MALE LEADERSHIP ACAD AT A MACEO SMITH,'057905381,'481623012569,3030 STAG,DALLAS,TX,75241,3030 STAG,DALLAS,TX,75241,(972) 749-2100,(972) 749-2101,DWELCH@dallasisd.org,www.dallasisd.org/obama,DAVID WELCH,DALLAS COUNTY,'057,'10,DALLAS ISD,'057905,REGULAR INSTRUCTIONAL,,'06-12,458,Yes,No,Not registered,441877,Active 
school,INNOVATION DESIGN ENTREPRENEURSHIP ACADEMY,'057905382,'481623013331,4800 ROSS AVE,DALLAS,TX,75204,4800 ROSS AVE,DALLAS,TX,75204,(972) 794-6800,(972) 794-6801,nahicks@dallasisd.org,,NAKIMIA HICKS,DALLAS COUNTY,'057,'10,DALLAS ISD,'057905,REGULAR INSTRUCTIONAL,,'09-12,286,No,No,Not registered,441903,Active 
school,CITYLAB H S,'057905383,'481623013553,912 S ERVAY ST,DALLAS,TX,75201,912 S ERVAY ST,DALLAS,TX,75201,(972) 749-2702,(972) 749-2703,taunderwood@dallasisd.org,www.dallasisd.org/citylabhs,LYNN A SMITH,DALLAS COUNTY,'057,'10,DALLAS ISD,'057905,REGULAR INSTRUCTIONAL,,'09-11,203,No,No,Not registered,440159,Active 
school,SUDIE L WILLIAMS TALENTED AND GIFTED ACADEMY,'057905384,'481623013736,4518 POMONA RD,DALLAS,TX,75209,4518 POMONA RD,DALLAS,TX,75209,(972) 794-8700,(972) 794-8701,arodriguez@dallasisd.org,www.dallasisd.org/williamstag,MICHAEL J JACKSON,DALLAS COUNTY,'057,'10,DALLAS ISD,'057905,REGULAR INSTRUCTIONAL,,'04-07,327,No,No,Not registered,,Active 
school,MONTESSORI ACADEMY AT ONESIMO HERNANDEZ EL,'057905385,'481623013714,5555 MAPLE AVE,DALLAS,TX,75235,5555 MAPLE AVE,DALLAS,TX,75235,(972) 925-2700,(972) 794-2701,lisavega@dallasisd.org,www.dallasisd.org/hernandezmontessori,LISA A VEGA,DALLAS COUNTY,'057,'10,DALLAS ISD,'057905,REGULAR INSTRUCTIONAL,,'PK-03,229,No,No,Not registered,,Active 
school,SOLAR PREP FOR BOYS AT JOHN F KENNEDY,'057905386,'481623013841,1802 MOSER AVE,DALLAS,TX,75206,1802 MOSER AVE,DALLAS,TX,75206,(972) 794-7100,(972) 794-7101,arodriguez@dallasisd.org,www.dallasisd.org/domain/21481,ADRIANA GONZALEZ,DALLAS COUNTY,'057,'10,DALLAS ISD,'057905,REGULAR INSTRUCTIONAL,,'PK-03,305,No,No,Not registered,,Active 
school,NORTH LAKE EARLY COLLEGE H S,'057905387,'481623013924,1081 W SHADY GROVE,IRVING,TX,75060,1081 W SHADY GROVE,IRVING,TX,75060,(214) 891-1312,(214) 800-0000,rcmclaurin@dallasisd.org,www.dallasisd.org/northlakecollegiate,ROBERT MCLAURIN,DALLAS COUNTY,'057,'10,DALLAS ISD,'057905,REGULAR INSTRUCTIONAL,,'09,74,No,No,Not registered,,Active 
school,RESERVED FOR FUTURE USE,'057905392,'481623012550,3030 STAG RD,DALLAS,TX,75241,3030 STAG RD,DALLAS,TX,75241,(972) 925-3700,(972) 925-3701,arodriguez@dallasisd.org,, ,DALLAS COUNTY,'057,'10,DALLAS ISD,'057905,REGULAR INSTRUCTIONAL,,'09-12,0,No,No,Not registered,,Active 
school,MI ESCUELITA-CASA VIEW,'057905550,'481623013906,11540 FERGUSON RD,DALLAS,TX,75228,11540 FERGUSON RD,DALLAS,TX,75228,(972) 925-3700,(972) 925-3201,tbd@dallasisd.org,, ,DALLAS COUNTY,'057,'10,DALLAS ISD,'057905,REGULAR INSTRUCTIONAL,CAMPUS CHARTER,'PK,32,No,No,Not registered,,Active 
school,MI ESCUELITA-COCKRELL HILL,'057905551,'481623013914,4031 W CLARENDON,DALLAS,TX,75211,4031 W CLARENDON,DALLAS,TX,75211,(972) 925-3700,(972) 925-3201,tbd@dallasisd.org,, ,DALLAS COUNTY,'057,'10,DALLAS ISD,'057905,REGULAR INSTRUCTIONAL,CAMPUS CHARTER,'PK,96,No,No,Not registered,,Active 
school,MI ESCUELITA-CROSSOVER,'057905552,'481623013944,4231 MAPLE AVE,DALLAS,TX,75219,4231 MAPLE AVE,DALLAS,TX,75219,(972) 925-3700,(972) 925-3201,tbd@dallasisd.org,, ,DALLAS COUNTY,'057,'10,DALLAS ISD,'057905,REGULAR INSTRUCTIONAL,CAMPUS CHARTER,'PK,37,No,No,Not registered,,Active 
school,MI ESCUELITA-GOOD SHEPHERD,'057905553,'481623013862,4931 BERNAL DR,DALLAS,TX,75212,4931 BERNAL DR,DALLAS,TX,75212,(972) 925-3700,(972) 925-3201,tbd@dallasisd.org,, ,DALLAS COUNTY,'057,'10,DALLAS ISD,'057905,REGULAR INSTRUCTIONAL,CAMPUS CHARTER,'PK,40,No,No,Not registered,,Active 
school,CHILDCAREGROUP-LANDAUER,'057905560,'481623013934,4539 MUNGER AVE,DALLAS,TX,75204,4539 MUNGER AVE,DALLAS,TX,75204,(972) 925-3700,(972) 925-3201,tbd@dallasisd.org,, ,DALLAS COUNTY,'057,'10,DALLAS ISD,'057905,REGULAR INSTRUCTIONAL,CAMPUS CHARTER,'PK,35,No,No,Not registered,,Active 
school,CHILDCAREGROUP-MARTIN LUTHER KING,'057905561,'481623013880,2922 MARTIN LUTHER KING JR BLVD,DALLAS,TX,75215,2922 MARTIN LUTHER KING JR BLVD,DALLAS,TX,75215,(972) 925-3700,(972) 925-3201,tbd@dallasisd.org,, ,DALLAS COUNTY,'057,'10,DALLAS ISD,'057905,REGULAR INSTRUCTIONAL,CAMPUS CHARTER,'PK,65,No,No,Not registered,,Active 
school,CHILDCAREGROUP-WEST DALLAS,'057905562,'481623013890,2827 LAPSLEY ST,DALLAS,TX,75212,2827 LAPSLEY ST,DALLAS,TX,75212,(972) 925-3700,(972) 925-3201,tbd@dallasisd.org,, ,DALLAS COUNTY,'057,'10,DALLAS ISD,'057905,REGULAR INSTRUCTIONAL,CAMPUS CHARTER,'PK,23,No,No,Not registered,,Active 
school,GOOD STREET LEARNING CENTER,'057905565,'481623013897,3126 ELSIE FAYE HEGGINS,DALLAS,TX,75215,3126 ELSIE FAYE HEGGINS,DALLAS,TX,75215,(972) 925-3700,(972) 925-3201,tbd@dallasisd.org,, ,DALLAS COUNTY,'057,'10,DALLAS ISD,'057905,REGULAR INSTRUCTIONAL,CAMPUS CHARTER,'PK,28,No,No,Not registered,,Active 
school,HEAVENLY LEARNING CENTER,'057905566,'481623013904,9625 PLANO RD #1700,DALLAS,TX,75238,9625 PLANO RD #1700,DALLAS,TX,75238,(972) 925-3700,(972) 925-3201,tbd@dallasisd.org,, ,DALLAS COUNTY,'057,'10,DALLAS ISD,'057905,REGULAR INSTRUCTIONAL,CAMPUS CHARTER,'PK,25,No,No,Not registered,,Active 
school,BRYAN'S HOUSE,'057905569,'481623013889,3610 PIPESTONE RD,DALLAS,TX,75212,3610 PIPESTONE RD,DALLAS,TX,75212,(972) 925-3700,(972) 925-3201,tbd@dallasisd.org,, ,DALLAS COUNTY,'057,'10,DALLAS ISD,'057905,REGULAR INSTRUCTIONAL,CAMPUS CHARTER,'PK,21,No,No,Not registered,,Active 